{"type":"FeatureCollection","features":[{"type":"Feature","geometry":{"type":"Polygon","coordinates":[[[-79.9413429,40.4033734],[-79.9413496,40.4033638],[-79.9413574,40.4033548],[-79.9413664,40.4033463],[-79.9413765,40.4033387],[-79.9413875,40.4033318],[-79.9413993,40.4033258],[-79.9414119,40.4033207],[-79.941425,40.4033165],[-79.9414387,40.4033134],[-79.9414526,40.4033114],[-79.9414668,40.4033104],[-79.941481,40.4033104],[-79.9414951,40.4033116],[-79.9415091,40.4033138],[-79.9416284,40.4033375],[-79.942296,40.4034703],[-79.9430392,40.403618],[-79.9451042,40.4040285],[-79.945482,40.4041036],[-79.9457364,40.4041542],[-79.9457499,40.4041574],[-79.9457629,40.4041616],[-79.9457752,40.4041668],[-79.9457869,40.4041729],[-79.9457977,40.4041798],[-79.9458076,40.4041874],[-79.9458164,40.4041958],[-79.9458241,40.4042049],[-79.9458307,40.4042144],[-79.945836,40.4042244],[-79.9458399,40.4042347],[-79.9458426,40.4042453],[-79.9458438,40.404256],[-79.9458437,40.4042668],[-79.9458422,40.4042775],[-79.9458393,40.4042881],[-79.945501,40.4052827],[-79.9452971,40.4058821],[-79.945107,40.4064411],[-79.9451028,40.4064514],[-79.9450972,40.4064613],[-79.9450905,40.4064707],[-79.9450826,40.4064796],[-79.9450735,40.4064879],[-79.9450635,40.4064955],[-79.9450525,40.4065022],[-79.9450407,40.4065081],[-79.9450282,40.4065131],[-79.9450151,40.4065172],[-79.9450016,40.4065202],[-79.9449878,40.4065222],[-79.9449737,40.4065232],[-79.9449596,40.4065231],[-79.9449456,40.4065219],[-79.9449318,40.4065197],[-79.9448112,40.4064957],[-79.9447974,40.4064924],[-79.9447841,40.406488],[-79.9447714,40.4064827],[-79.942008,40.4051674],[-79.9420072,40.4051671],[-79.9410105,40.4046861],[-79.940999,40.40468],[-79.9409884,40.404673],[-79.9409787,40.4046653],[-79.9409701,40.4046569],[-79.9409625,40.4046479],[-79.9409562,40.4046384],[-79.9409511,40.4046284],[-79.9409472,40.4046182],[-79.9409447,40.4046076],[-79.9409436,40.404597],[-79.9409438,40.4045863],[-79.9409602,40.40439],[-79.9409615,40.4043805],[-79.940964,40.404371],[-79.9411569,40.4037666],[-79.9411574,40.4037649],[-79.9412224,40.4035741],[-79.9412263,40.4035644],[-79.9412314,40.403555],[-79.9413429,40.4033734]]]},"properties":{"kind":"neighborhood","name":"Hazelwood"}},{"type":"Feature","geometry":{"type":"Polygon","coordinates":[[[-79.9394659,40.4214507],[-79.9394799,40.4214495],[-79.939494,40.4214493],[-79.939508,40.4214501],[-79.9395219,40.4214521],[-79.9395355,40.421455],[-79.9395486,40.421459],[-79.9395611,40.4214639],[-79.939573,40.4214697],[-79.939584,40.4214764],[-79.9395942,40.4214839],[-79.9396033,40.4214921],[-79.9396113,40.421501],[-79.9396182,40.4215104],[-79.9396238,40.4215203],[-79.9396281,40.4215305],[-79.9396311,40.421541],[-79.9397408,40.4220461],[-79.9400523,40.4234813],[-79.940054,40.423492],[-79.9400542,40.4235028],[-79.9400531,40.4235135],[-79.9400506,40.4235241],[-79.9400467,40.4235345],[-79.9400415,40.4235445],[-79.9400351,40.4235541],[-79.9400275,40.4235631],[-79.9400187,40.4235716],[-79.9400089,40.4235793],[-79.9399982,40.4235863],[-79.9399866,40.4235925],[-79.9399743,40.4235977],[-79.9399613,40.423602],[-79.9399479,40.4236053],[-79.9399341,40.4236076],[-79.9397985,40.4236248],[-79.9395641,40.4236545],[-79.9392221,40.4236979],[-79.9392059,40.4236992],[-79.9391897,40.4236991],[-79.9391737,40.4236977],[-79.9365732,40.4233482],[-79.9365595,40.4233458],[-79.9365462,40.4233424],[-79.9365333,40.423338],[-79.9365211,40.4233327],[-79.9365096,40.4233265],[-79.936499,40.4233195],[-79.9364893,40.4233117],[-79.9364806,40.4233032],[-79.9364731,40.4232942],[-79.9364668,40.4232846],[-79.9364617,40.4232745],[-79.936458,40.4232642],[-79.9361513,40.4222241],[-79.9361497,40.422218],[-79.9361,40.4219888],[-79.9360983,40.4219781],[-79.9360981,40.4219673],[-79.9360992,40.4219565],[-79.9361018,40.4219459],[-79.9361056,40.4219356],[-79.9361108,40.4219255],[-79.9361172,40.421916],[-79.9361248,40.4219069],[-79.9361336,40.4218985],[-79.9361434,40.4218907],[-79.9361541,40.4218837],[-79.9361657,40.4218776],[-79.9361781,40.4218723],[-79.936191,40.4218681],[-79.9362044,40.4218648],[-79.9362182,40.4218625],[-79.9363533,40.4218453],[-79.9394659,40.4214507]]]},"properties":{"kind":"neighborhood","name":"Greenfield"}},{"type":"Feature","geometry":{"type":"Polygon","coordinates":[[[-79.926096,40.3967332],[-79.9261029,40.3967238],[-79.926111,40.396715],[-79.9261202,40.3967068],[-79.9261303,40.3966993],[-79.9261414,40.3966927],[-79.9261533,40.3966869],[-79.9261659,40.396682],[-79.926179,40.3966781],[-79.9261926,40.3966752],[-79.9262065,40.3966734],[-79.9262205,40.3966726],[-79.9262346,40.3966728],[-79.9262486,40.3966741],[-79.9262624,40.3966764],[-79.9262758,40.3966798],[-79.9262887,40.3966841],[-79.9264907,40.3967615],[-79.9280761,40.3973681],[-79.9285633,40.3975545],[-79.9289331,40.397696],[-79.9291357,40.3977735],[-79.929148,40.3977788],[-79.9291595,40.397785],[-79.9291702,40.397792],[-79.9291799,40.3977998],[-79.9291886,40.3978083],[-79.9291962,40.3978174],[-79.9292026,40.397827],[-79.9292077,40.397837],[-79.9292115,40.3978474],[-79.9292139,40.397858],[-79.929215,40.3978688],[-79.9292147,40.3978795],[-79.929213,40.3978902],[-79.9292099,40.3979007],[-79.9292055,40.397911],[-79.9291998,40.3979208],[-79.9289097,40.3983641],[-79.9284262,40.3991026],[-79.9284193,40.399112],[-79.9284112,40.3991208],[-79.928402,40.399129],[-79.9283919,40.3991365],[-79.9283808,40.3991431],[-79.9283689,40.3991489],[-79.9283563,40.3991538],[-79.9283432,40.3991577],[-79.9283296,40.3991606],[-79.9283157,40.3991624],[-79.9283017,40.3991632],[-79.9282876,40.399163],[-79.9282736,40.3991617],[-79.9282598,40.3991594],[-79.9282464,40.399156],[-79.9282335,40.3991517],[-79.9279303,40.3990357],[-79.9276362,40.3989231],[-79.9275365,40.398885],[-79.9275234,40.3988793],[-79.9275111,40.3988725],[-79.9274998,40.3988649],[-79.9274896,40.3988563],[-79.9268472,40.398256],[-79.9268469,40.3982557],[-79.9258266,40.3972944],[-79.9258186,40.397286],[-79.9258116,40.3972771],[-79.9258057,40.3972677],[-79.9258011,40.397258],[-79.9257976,40.3972479],[-79.9257955,40.3972377],[-79.9257946,40.3972273],[-79.9257949,40.3972169],[-79.9257966,40.3972066],[-79.9257995,40.3971965],[-79.9258037,40.3971866],[-79.9258091,40.3971771],[-79.9259507,40.3969551],[-79.9259514,40.3969541],[-79.926096,40.3967332]]]},"properties":{"kind":"neighborhood","name":"Glen Hazel"}},{"type":"Feature","geometry":{"type":"Polygon","coordinates":[[[-80.0494168,40.3723872],[-80.0494306,40.3723852],[-80.0494446,40.3723842],[-80.0494587,40.3723843],[-80.0494727,40.3723855],[-80.0494865,40.3723877],[-80.0495,40.3723909],[-80.0495129,40.3723952],[-80.0495253,40.3724003],[-80.0495369,40.3724064],[-80.0495477,40.3724133],[-80.0495576,40.372421],[-80.0495664,40.3724294],[-80.0495741,40.3724384],[-80.0495806,40.372448],[-80.0495859,40.372458],[-80.0495899,40.3724683],[-80.0496478,40.3726531],[-80.0496504,40.3726637],[-80.0496517,40.3726744],[-80.0496515,40.3726852],[-80.04965,40.3726959],[-80.0496471,40.3727065],[-80.0496429,40.3727167],[-80.0496374,40.3727266],[-80.0496306,40.3727361],[-80.0496227,40.372745],[-80.0496136,40.3727533],[-80.0496036,40.3727608],[-80.0495926,40.3727676],[-80.0495808,40.3727735],[-80.0495683,40.3727784],[-80.0495552,40.3727825],[-80.0495417,40.3727855],[-80.0494192,40.372808],[-80.0489322,40.3728973],[-80.0489184,40.3728993],[-80.0489044,40.3729003],[-80.0488903,40.3729002],[-80.0488763,40.372899],[-80.0488625,40.3728968],[-80.048849,40.3728936],[-80.0488361,40.3728893],[-80.0488237,40.3728842],[-80.0488121,40.3728781],[-80.0488013,40.3728712],[-80.0487914,40.3728635],[-80.0487826,40.3728551],[-80.0487749,40.3728461],[-80.0487684,40.3728365],[-80.0487631,40.3728265],[-80.0487592,40.3728162],[-80.0487012,40.3726314],[-80.0486986,40.3726208],[-80.0486973,40.3726101],[-80.0486975,40.3725993],[-80.048699,40.3725886],[-80.0487019,40.372578],[-80.0487061,40.3725678],[-80.0487116,40.3725578],[-80.0487184,40.3725484],[-80.0487263,40.3725395],[-80.0487354,40.3725312],[-80.0487454,40.3725237],[-80.0487564,40.3725169],[-80.0487682,40.372511],[-80.0487807,40.3725061],[-80.0487938,40.372502],[-80.0488073,40.372499],[-80.0489257,40.3724773],[-80.0490549,40.3724536],[-80.0494168,40.3723872]]]},"properties":{"kind":"neighborhood","name":"Mt. Lebanon"}},{"type":"Feature","geometry":{"type":"Point","coordinates":[-79.9467365,40.4029906]},"properties":{"kind":"transit_stop","name":"Second Ave stop 1"}},{"type":"Feature","geometry":{"type":"Point","coordinates":[-79.9456131,40.4031858]},"properties":{"kind":"transit_stop","name":"Second Ave stop 2"}},{"type":"Feature","geometry":{"type":"Point","coordinates":[-79.9444896,40.4033811]},"properties":{"kind":"transit_stop","name":"Second Ave stop 3"}},{"type":"Feature","geometry":{"type":"Point","coordinates":[-79.9433661,40.4035763]},"properties":{"kind":"transit_stop","name":"Second Ave stop 4"}},{"type":"Feature","geometry":{"type":"Point","coordinates":[-79.9422426,40.4037716]},"properties":{"kind":"transit_stop","name":"Second Ave stop 5"}},{"type":"Feature","geometry":{"type":"Point","coordinates":[-79.9411191,40.4039668]},"properties":{"kind":"transit_stop","name":"Second Ave stop 6"}},{"type":"Feature","geometry":{"type":"Point","coordinates":[-79.9399956,40.404162]},"properties":{"kind":"transit_stop","name":"Second Ave stop 7"}},{"type":"Feature","geometry":{"type":"Polygon","coordinates":[[[-79.9408258,40.4053937],[-79.9397489,40.4054142],[-79.9397756,40.4062374],[-79.9408525,40.406217],[-79.9408258,40.4053937]]]},"properties":{"kind":"park","name":"Hazelwood park"}},{"type":"Feature","geometry":{"type":"Polygon","coordinates":[[[-79.9359731,40.4225523],[-79.9348959,40.4225727],[-79.9349226,40.4233959],[-79.9359998,40.4233755],[-79.9359731,40.4225523]]]},"properties":{"kind":"park","name":"Greenfield park"}},{"type":"Feature","geometry":{"type":"Point","coordinates":[-79.9277152,40.3997828]},"properties":{"kind":"school","name":"Glen Hazel school"}}]}
