{"type":"FeatureCollection","features":[{"type":"Feature","geometry":{"type":"Polygon","coordinates":[[[-79.945393,40.4042477],[-79.9452651,40.4042223],[-79.9451573,40.4045393],[-79.9452851,40.4045647],[-79.945393,40.4042477]]]},"properties":{"parcel_id":"0000X00000000000"}},{"type":"Feature","geometry":{"type":"Polygon","coordinates":[[[-79.9452651,40.4042223],[-79.945146,40.4041986],[-79.9450382,40.4045156],[-79.9451573,40.4045393],[-79.9452651,40.4042223]]]},"properties":{"parcel_id":"0000X00001000000"}},{"type":"Feature","geometry":{"type":"Polygon","coordinates":[[[-79.945146,40.4041986],[-79.9450195,40.4041735],[-79.9449117,40.4044905],[-79.9450382,40.4045156],[-79.945146,40.4041986]]]},"properties":{"parcel_id":"0000X00002000000"}},{"type":"Feature","geometry":{"type":"Polygon","coordinates":[[[-79.9450195,40.4041735],[-79.9448857,40.4041469],[-79.9447779,40.4044639],[-79.9449117,40.4044905],[-79.9450195,40.4041735]]]},"properties":{"parcel_id":"0000X00003000000"}},{"type":"Feature","geometry":{"type":"Polygon","coordinates":[[[-79.9448857,40.4041469],[-79.9447794,40.4041258],[-79.9446715,40.4044427],[-79.9447779,40.4044639],[-79.9448857,40.4041469]]]},"properties":{"parcel_id":"0000X00004000000"}},{"type":"Feature","geometry":{"type":"Polygon","coordinates":[[[-79.9447794,40.4041258],[-79.9446658,40.4041032],[-79.9445579,40.4044202],[-79.9446715,40.4044427],[-79.9447794,40.4041258]]]},"properties":{"parcel_id":"0000X00005000000"}},{"type":"Feature","geometry":{"type":"Polygon","coordinates":[[[-79.9446658,40.4041032],[-79.9445659,40.4040833],[-79.9444581,40.4044003],[-79.9445579,40.4044202],[-79.9446658,40.4041032]]]},"properties":{"parcel_id":"0000X00006000000"}},{"type":"Feature","geometry":{"type":"Polygon","coordinates":[[[-79.9452851,40.4045647],[-79.9451573,40.4045393],[-79.9450495,40.4048563],[-79.9451773,40.4048817],[-79.9452851,40.4045647]]]},"properties":{"parcel_id":"0000X00007000000"}},{"type":"Feature","geometry":{"type":"Polygon","coordinates":[[[-79.9451573,40.4045393],[-79.9450382,40.4045156],[-79.9449303,40.4048326],[-79.9450495,40.4048563],[-79.9451573,40.4045393]]]},"properties":{"parcel_id":"0000X00008000000"}},{"type":"Feature","geometry":{"type":"Polygon","coordinates":[[[-79.9450382,40.4045156],[-79.9449117,40.4044905],[-79.9448038,40.4048075],[-79.9449303,40.4048326],[-79.9450382,40.4045156]]]},"properties":{"parcel_id":"0000X00009000000"}},{"type":"Feature","geometry":{"type":"Polygon","coordinates":[[[-79.9449117,40.4044905],[-79.9447779,40.4044639],[-79.9446701,40.4047809],[-79.9448038,40.4048075],[-79.9449117,40.4044905]]]},"properties":{"parcel_id":"0000X00010000000"}},{"type":"Feature","geometry":{"type":"Polygon","coordinates":[[[-79.9447779,40.4044639],[-79.9446715,40.4044427],[-79.9445637,40.4047597],[-79.9446701,40.4047809],[-79.9447779,40.4044639]]]},"properties":{"parcel_id":"0000X00011000000"}},{"type":"Feature","geometry":{"type":"Polygon","coordinates":[[[-79.9446715,40.4044427],[-79.9445579,40.4044202],[-79.9444501,40.4047371],[-79.9445637,40.4047597],[-79.9446715,40.4044427]]]},"properties":{"parcel_id":"0000X00012000000"}},{"type":"Feature","geometry":{"type":"Polygon","coordinates":[[[-79.9445579,40.4044202],[-79.9444581,40.4044003],[-79.9443502,40.4047173],[-79.9444501,40.4047371],[-79.9445579,40.4044202]]]},"properties":{"parcel_id":"0000X00013000000"}},{"type":"Feature","geometry":{"type":"Polygon","coordinates":[[[-79.9443921,40.4040488],[-79.9442629,40.4040231],[-79.9441551,40.4043401],[-79.9442843,40.4043658],[-79.9443921,40.4040488]]]},"properties":{"parcel_id":"0000X00014000000"}},{"type":"Feature","geometry":{"type":"Polygon","coordinates":[[[-79.9442629,40.4040231],[-79.9441463,40.4039999],[-79.9440384,40.4043169],[-79.9441551,40.4043401],[-79.9442629,40.4040231]]]},"properties":{"parcel_id":"0000X00015000000"}},{"type":"Feature","geometry":{"type":"Polygon","coordinates":[[[-79.9441463,40.4039999],[-79.9440322,40.4039772],[-79.9439244,40.4042942],[-79.9440384,40.4043169],[-79.9441463,40.4039999]]]},"properties":{"parcel_id":"0000X00016000000"}},{"type":"Feature","geometry":{"type":"Polygon","coordinates":[[[-79.9440322,40.4039772],[-79.9439015,40.4039512],[-79.9437936,40.4042682],[-79.9439244,40.4042942],[-79.9440322,40.4039772]]]},"properties":{"parcel_id":"0000X00017000000"}},{"type":"Feature","geometry":{"type":"Polygon","coordinates":[[[-79.9439015,40.4039512],[-79.9437725,40.4039256],[-79.9436647,40.4042426],[-79.9437936,40.4042682],[-79.9439015,40.4039512]]]},"properties":{"parcel_id":"0000X00018000000"}},{"type":"Feature","geometry":{"type":"Polygon","coordinates":[[[-79.9437725,40.4039256],[-79.9436742,40.4039061],[-79.9435664,40.404223],[-79.9436647,40.4042426],[-79.9437725,40.4039256]]]},"properties":{"parcel_id":"0000X00019000000"}},{"type":"Feature","geometry":{"type":"Polygon","coordinates":[[[-79.9436742,40.4039061],[-79.943565,40.4038844],[-79.9434572,40.4042013],[-79.9435664,40.404223],[-79.9436742,40.4039061]]]},"properties":{"parcel_id":"0000X00020000000"}},{"type":"Feature","geometry":{"type":"Polygon","coordinates":[[[-79.9442843,40.4043658],[-79.9441551,40.4043401],[-79.9440473,40.4046571],[-79.9441765,40.4046827],[-79.9442843,40.4043658]]]},"properties":{"parcel_id":"0000X00021000000"}},{"type":"Feature","geometry":{"type":"Polygon","coordinates":[[[-79.9441551,40.4043401],[-79.9440384,40.4043169],[-79.9439306,40.4046339],[-79.9440473,40.4046571],[-79.9441551,40.4043401]]]},"properties":{"parcel_id":"0000X00022000000"}},{"type":"Feature","geometry":{"type":"Polygon","coordinates":[[[-79.9440384,40.4043169],[-79.9439244,40.4042942],[-79.9438166,40.4046112],[-79.9439306,40.4046339],[-79.9440384,40.4043169]]]},"properties":{"parcel_id":"0000X00023000000"}},{"type":"Feature","geometry":{"type":"Polygon","coordinates":[[[-79.9439244,40.4042942],[-79.9437936,40.4042682],[-79.9436858,40.4045852],[-79.9438166,40.4046112],[-79.9439244,40.4042942]]]},"properties":{"parcel_id":"0000X00024000000"}},{"type":"Feature","geometry":{"type":"Polygon","coordinates":[[[-79.9437936,40.4042682],[-79.9436647,40.4042426],[-79.9435569,40.4045596],[-79.9436858,40.4045852],[-79.9437936,40.4042682]]]},"properties":{"parcel_id":"0000X00025000000"}},{"type":"Feature","geometry":{"type":"Polygon","coordinates":[[[-79.9436647,40.4042426],[-79.9435664,40.404223],[-79.9434586,40.40454],[-79.9435569,40.4045596],[-79.9436647,40.4042426]]]},"properties":{"parcel_id":"0000X00026000000"}},{"type":"Feature","geometry":{"type":"Polygon","coordinates":[[[-79.9435664,40.404223],[-79.9434572,40.4042013],[-79.9433494,40.4045183],[-79.9434586,40.40454],[-79.9435664,40.404223]]]},"properties":{"parcel_id":"0000X00027000000"}},{"type":"Feature","geometry":{"type":"Polygon","coordinates":[[[-79.9433913,40.4038498],[-79.943288,40.4038293],[-79.9431802,40.4041463],[-79.9432834,40.4041668],[-79.9433913,40.4038498]]]},"properties":{"parcel_id":"0000X00028000000"}},{"type":"Feature","geometry":{"type":"Polygon","coordinates":[[[-79.943288,40.4038293],[-79.9431728,40.4038064],[-79.943065,40.4041234],[-79.9431802,40.4041463],[-79.943288,40.4038293]]]},"properties":{"parcel_id":"0000X00029000000"}},{"type":"Feature","geometry":{"type":"Polygon","coordinates":[[[-79.9431728,40.4038064],[-79.94304,40.40378],[-79.9429321,40.404097],[-79.943065,40.4041234],[-79.9431728,40.4038064]]]},"properties":{"parcel_id":"0000X00030000000"}},{"type":"Feature","geometry":{"type":"Polygon","coordinates":[[[-79.94304,40.40378],[-79.9429299,40.4037581],[-79.9428221,40.4040751],[-79.9429321,40.404097],[-79.94304,40.40378]]]},"properties":{"parcel_id":"0000X00031000000"}},{"type":"Feature","geometry":{"type":"Polygon","coordinates":[[[-79.9429299,40.4037581],[-79.9428103,40.4037343],[-79.9427025,40.4040513],[-79.9428221,40.4040751],[-79.9429299,40.4037581]]]},"properties":{"parcel_id":"0000X00032000000"}},{"type":"Feature","geometry":{"type":"Polygon","coordinates":[[[-79.9428103,40.4037343],[-79.9426888,40.4037102],[-79.942581,40.4040271],[-79.9427025,40.4040513],[-79.9428103,40.4037343]]]},"properties":{"parcel_id":"0000X00033000000"}},{"type":"Feature","geometry":{"type":"Polygon","coordinates":[[[-79.9426888,40.4037102],[-79.9425642,40.4036854],[-79.9424564,40.4040024],[-79.942581,40.4040271],[-79.9426888,40.4037102]]]},"properties":{"parcel_id":"0000X00034000000"}},{"type":"Feature","geometry":{"type":"Polygon","coordinates":[[[-79.9432834,40.4041668],[-79.9431802,40.4041463],[-79.9430724,40.4044632],[-79.9431756,40.4044838],[-79.9432834,40.4041668]]]},"properties":{"parcel_id":"0000X00035000000"}},{"type":"Feature","geometry":{"type":"Polygon","coordinates":[[[-79.9431802,40.4041463],[-79.943065,40.4041234],[-79.9429571,40.4044403],[-79.9430724,40.4044632],[-79.9431802,40.4041463]]]},"properties":{"parcel_id":"0000X00036000000"}},{"type":"Feature","geometry":{"type":"Polygon","coordinates":[[[-79.943065,40.4041234],[-79.9429321,40.404097],[-79.9428243,40.4044139],[-79.9429571,40.4044403],[-79.943065,40.4041234]]]},"properties":{"parcel_id":"0000X00037000000"}},{"type":"Feature","geometry":{"type":"Polygon","coordinates":[[[-79.9429321,40.404097],[-79.9428221,40.4040751],[-79.9427143,40.4043921],[-79.9428243,40.4044139],[-79.9429321,40.404097]]]},"properties":{"parcel_id":"0000X00038000000"}},{"type":"Feature","geometry":{"type":"Polygon","coordinates":[[[-79.9428221,40.4040751],[-79.9427025,40.4040513],[-79.9425946,40.4043683],[-79.9427143,40.4043921],[-79.9428221,40.4040751]]]},"properties":{"parcel_id":"0000X00039000000"}},{"type":"Feature","geometry":{"type":"Polygon","coordinates":[[[-79.9427025,40.4040513],[-79.942581,40.4040271],[-79.9424732,40.4043441],[-79.9425946,40.4043683],[-79.9427025,40.4040513]]]},"properties":{"parcel_id":"0000X00040000000"}},{"type":"Feature","geometry":{"type":"Polygon","coordinates":[[[-79.942581,40.4040271],[-79.9424564,40.4040024],[-79.9423485,40.4043193],[-79.9424732,40.4043441],[-79.942581,40.4040271]]]},"properties":{"parcel_id":"0000X00041000000"}},{"type":"Feature","geometry":{"type":"Polygon","coordinates":[[[-79.9423904,40.4036508],[-79.9422617,40.4036253],[-79.9421539,40.4039422],[-79.9422826,40.4039678],[-79.9423904,40.4036508]]]},"properties":{"parcel_id":"0000X00042000000"}},{"type":"Feature","geometry":{"type":"Polygon","coordinates":[[[-79.9422617,40.4036253],[-79.9421244,40.4035979],[-79.9420166,40.4039149],[-79.9421539,40.4039422],[-79.9422617,40.4036253]]]},"properties":{"parcel_id":"0000X00043000000"}},{"type":"Feature","geometry":{"type":"Polygon","coordinates":[[[-79.9421244,40.4035979],[-79.9420249,40.4035782],[-79.9419171,40.4038951],[-79.9420166,40.4039149],[-79.9421244,40.4035979]]]},"properties":{"parcel_id":"0000X00044000000"}},{"type":"Feature","geometry":{"type":"Polygon","coordinates":[[[-79.9420249,40.4035782],[-79.9418995,40.4035532],[-79.9417917,40.4038702],[-79.9419171,40.4038951],[-79.9420249,40.4035782]]]},"properties":{"parcel_id":"0000X00045000000"}},{"type":"Feature","geometry":{"type":"Polygon","coordinates":[[[-79.9418995,40.4035532],[-79.9417918,40.4035318],[-79.9416839,40.4038488],[-79.9417917,40.4038702],[-79.9418995,40.4035532]]]},"properties":{"parcel_id":"0000X00046000000"}},{"type":"Feature","geometry":{"type":"Polygon","coordinates":[[[-79.9417918,40.4035318],[-79.9416843,40.4035105],[-79.9415765,40.4038274],[-79.9416839,40.4038488],[-79.9417918,40.4035318]]]},"properties":{"parcel_id":"0000X00047000000"}},{"type":"Feature","geometry":{"type":"Polygon","coordinates":[[[-79.9416843,40.4035105],[-79.9415633,40.4034864],[-79.9414555,40.4038034],[-79.9415765,40.4038274],[-79.9416843,40.4035105]]]},"properties":{"parcel_id":"0000X00048000000"}},{"type":"Feature","geometry":{"type":"Polygon","coordinates":[[[-79.9422826,40.4039678],[-79.9421539,40.4039422],[-79.9420461,40.4042592],[-79.9421748,40.4042848],[-79.9422826,40.4039678]]]},"properties":{"parcel_id":"0000X00049000000"}},{"type":"Feature","geometry":{"type":"Polygon","coordinates":[[[-79.9421539,40.4039422],[-79.9420166,40.4039149],[-79.9419087,40.4042319],[-79.9420461,40.4042592],[-79.9421539,40.4039422]]]},"properties":{"parcel_id":"0000X00050000000"}},{"type":"Feature","geometry":{"type":"Polygon","coordinates":[[[-79.9420166,40.4039149],[-79.9419171,40.4038951],[-79.9418092,40.4042121],[-79.9419087,40.4042319],[-79.9420166,40.4039149]]]},"properties":{"parcel_id":"0000X00051000000"}},{"type":"Feature","geometry":{"type":"Polygon","coordinates":[[[-79.9419171,40.4038951],[-79.9417917,40.4038702],[-79.9416838,40.4041872],[-79.9418092,40.4042121],[-79.9419171,40.4038951]]]},"properties":{"parcel_id":"0000X00052000000"}},{"type":"Feature","geometry":{"type":"Polygon","coordinates":[[[-79.9417917,40.4038702],[-79.9416839,40.4038488],[-79.9415761,40.4041658],[-79.9416838,40.4041872],[-79.9417917,40.4038702]]]},"properties":{"parcel_id":"0000X00053000000"}},{"type":"Feature","geometry":{"type":"Polygon","coordinates":[[[-79.9416839,40.4038488],[-79.9415765,40.4038274],[-79.9414687,40.4041444],[-79.9415761,40.4041658],[-79.9416839,40.4038488]]]},"properties":{"parcel_id":"0000X00054000000"}},{"type":"Feature","geometry":{"type":"Polygon","coordinates":[[[-79.9415765,40.4038274],[-79.9414555,40.4038034],[-79.9413477,40.4041204],[-79.9414687,40.4041444],[-79.9415765,40.4038274]]]},"properties":{"parcel_id":"0000X00055000000"}},{"type":"Feature","geometry":{"type":"Polygon","coordinates":[[[-79.9451321,40.4050145],[-79.9450053,40.4049893],[-79.9448975,40.4053063],[-79.9450243,40.4053315],[-79.9451321,40.4050145]]]},"properties":{"parcel_id":"0000X00056000000"}},{"type":"Feature","geometry":{"type":"Polygon","coordinates":[[[-79.9450053,40.4049893],[-79.9448764,40.4049637],[-79.9447686,40.4052807],[-79.9448975,40.4053063],[-79.9450053,40.4049893]]]},"properties":{"parcel_id":"0000X00057000000"}},{"type":"Feature","geometry":{"type":"Polygon","coordinates":[[[-79.9448764,40.4049637],[-79.9447666,40.4049419],[-79.9446588,40.4052588],[-79.9447686,40.4052807],[-79.9448764,40.4049637]]]},"properties":{"parcel_id":"0000X00058000000"}},{"type":"Feature","geometry":{"type":"Polygon","coordinates":[[[-79.9447666,40.4049419],[-79.9446546,40.4049196],[-79.9445467,40.4052366],[-79.9446588,40.4052588],[-79.9447666,40.4049419]]]},"properties":{"parcel_id":"0000X00059000000"}},{"type":"Feature","geometry":{"type":"Polygon","coordinates":[[[-79.9446546,40.4049196],[-79.9445451,40.4048978],[-79.9444373,40.4052148],[-79.9445467,40.4052366],[-79.9446546,40.4049196]]]},"properties":{"parcel_id":"0000X00060000000"}},{"type":"Feature","geometry":{"type":"Polygon","coordinates":[[[-79.9445451,40.4048978],[-79.9444384,40.4048766],[-79.9443306,40.4051936],[-79.9444373,40.4052148],[-79.9445451,40.4048978]]]},"properties":{"parcel_id":"0000X00061000000"}},{"type":"Feature","geometry":{"type":"Polygon","coordinates":[[[-79.9444384,40.4048766],[-79.944305,40.4048501],[-79.9441972,40.4051671],[-79.9443306,40.4051936],[-79.9444384,40.4048766]]]},"properties":{"parcel_id":"0000X00062000000"}},{"type":"Feature","geometry":{"type":"Polygon","coordinates":[[[-79.9450243,40.4053315],[-79.9448975,40.4053063],[-79.9447897,40.4056233],[-79.9449165,40.4056485],[-79.9450243,40.4053315]]]},"properties":{"parcel_id":"0000X00063000000"}},{"type":"Feature","geometry":{"type":"Polygon","coordinates":[[[-79.9448975,40.4053063],[-79.9447686,40.4052807],[-79.9446608,40.4055977],[-79.9447897,40.4056233],[-79.9448975,40.4053063]]]},"properties":{"parcel_id":"0000X00064000000"}},{"type":"Feature","geometry":{"type":"Polygon","coordinates":[[[-79.9447686,40.4052807],[-79.9446588,40.4052588],[-79.944551,40.4055758],[-79.9446608,40.4055977],[-79.9447686,40.4052807]]]},"properties":{"parcel_id":"0000X00065000000"}},{"type":"Feature","geometry":{"type":"Polygon","coordinates":[[[-79.9446588,40.4052588],[-79.9445467,40.4052366],[-79.9444389,40.4055536],[-79.944551,40.4055758],[-79.9446588,40.4052588]]]},"properties":{"parcel_id":"0000X00066000000"}},{"type":"Feature","geometry":{"type":"Polygon","coordinates":[[[-79.9445467,40.4052366],[-79.9444373,40.4052148],[-79.9443295,40.4055318],[-79.9444389,40.4055536],[-79.9445467,40.4052366]]]},"properties":{"parcel_id":"0000X00067000000"}},{"type":"Feature","geometry":{"type":"Polygon","coordinates":[[[-79.9444373,40.4052148],[-79.9443306,40.4051936],[-79.9442228,40.4055106],[-79.9443295,40.4055318],[-79.9444373,40.4052148]]]},"properties":{"parcel_id":"0000X00068000000"}},{"type":"Feature","geometry":{"type":"Polygon","coordinates":[[[-79.9443306,40.4051936],[-79.9441972,40.4051671],[-79.9440894,40.4054841],[-79.9442228,40.4055106],[-79.9443306,40.4051936]]]},"properties":{"parcel_id":"0000X00069000000"}},{"type":"Feature","geometry":{"type":"Polygon","coordinates":[[[-79.9441313,40.4048156],[-79.9440093,40.4047913],[-79.9439014,40.4051083],[-79.9440235,40.4051326],[-79.9441313,40.4048156]]]},"properties":{"parcel_id":"0000X00070000000"}},{"type":"Feature","geometry":{"type":"Polygon","coordinates":[[[-79.9440093,40.4047913],[-79.9438917,40.4047679],[-79.9437839,40.4050849],[-79.9439014,40.4051083],[-79.9440093,40.4047913]]]},"properties":{"parcel_id":"0000X00071000000"}},{"type":"Feature","geometry":{"type":"Polygon","coordinates":[[[-79.9438917,40.4047679],[-79.9437916,40.4047481],[-79.9436838,40.405065],[-79.9437839,40.4050849],[-79.9438917,40.4047679]]]},"properties":{"parcel_id":"0000X00072000000"}},{"type":"Feature","geometry":{"type":"Polygon","coordinates":[[[-79.9437916,40.4047481],[-79.943679,40.4047257],[-79.9435712,40.4050426],[-79.9436838,40.405065],[-79.9437916,40.4047481]]]},"properties":{"parcel_id":"0000X00073000000"}},{"type":"Feature","geometry":{"type":"Polygon","coordinates":[[[-79.943679,40.4047257],[-79.9435521,40.4047004],[-79.9434443,40.4050174],[-79.9435712,40.4050426],[-79.943679,40.4047257]]]},"properties":{"parcel_id":"0000X00074000000"}},{"type":"Feature","geometry":{"type":"Polygon","coordinates":[[[-79.9435521,40.4047004],[-79.9434273,40.4046756],[-79.9433195,40.4049926],[-79.9434443,40.4050174],[-79.9435521,40.4047004]]]},"properties":{"parcel_id":"0000X00075000000"}},{"type":"Feature","geometry":{"type":"Polygon","coordinates":[[[-79.9434273,40.4046756],[-79.9433042,40.4046511],[-79.9431964,40.4049681],[-79.9433195,40.4049926],[-79.9434273,40.4046756]]]},"properties":{"parcel_id":"0000X00076000000"}},{"type":"Feature","geometry":{"type":"Polygon","coordinates":[[[-79.9440235,40.4051326],[-79.9439014,40.4051083],[-79.9437936,40.4054253],[-79.9439156,40.4054495],[-79.9440235,40.4051326]]]},"properties":{"parcel_id":"0000X00077000000"}},{"type":"Feature","geometry":{"type":"Polygon","coordinates":[[[-79.9439014,40.4051083],[-79.9437839,40.4050849],[-79.9436761,40.4054019],[-79.9437936,40.4054253],[-79.9439014,40.4051083]]]},"properties":{"parcel_id":"0000X00078000000"}},{"type":"Feature","geometry":{"type":"Polygon","coordinates":[[[-79.9437839,40.4050849],[-79.9436838,40.405065],[-79.943576,40.405382],[-79.9436761,40.4054019],[-79.9437839,40.4050849]]]},"properties":{"parcel_id":"0000X00079000000"}},{"type":"Feature","geometry":{"type":"Polygon","coordinates":[[[-79.9436838,40.405065],[-79.9435712,40.4050426],[-79.9434634,40.4053596],[-79.943576,40.405382],[-79.9436838,40.405065]]]},"properties":{"parcel_id":"0000X00080000000"}},{"type":"Feature","geometry":{"type":"Polygon","coordinates":[[[-79.9435712,40.4050426],[-79.9434443,40.4050174],[-79.9433365,40.4053344],[-79.9434634,40.4053596],[-79.9435712,40.4050426]]]},"properties":{"parcel_id":"0000X00081000000"}},{"type":"Feature","geometry":{"type":"Polygon","coordinates":[[[-79.9434443,40.4050174],[-79.9433195,40.4049926],[-79.9432117,40.4053096],[-79.9433365,40.4053344],[-79.9434443,40.4050174]]]},"properties":{"parcel_id":"0000X00082000000"}},{"type":"Feature","geometry":{"type":"Polygon","coordinates":[[[-79.9433195,40.4049926],[-79.9431964,40.4049681],[-79.9430885,40.4052851],[-79.9432117,40.4053096],[-79.9433195,40.4049926]]]},"properties":{"parcel_id":"0000X00083000000"}},{"type":"Feature","geometry":{"type":"Polygon","coordinates":[[[-79.9431304,40.4046166],[-79.9430041,40.4045915],[-79.9428963,40.4049085],[-79.9430226,40.4049336],[-79.9431304,40.4046166]]]},"properties":{"parcel_id":"0000X00084000000"}},{"type":"Feature","geometry":{"type":"Polygon","coordinates":[[[-79.9430041,40.4045915],[-79.9428653,40.4045639],[-79.9427575,40.4048809],[-79.9428963,40.4049085],[-79.9430041,40.4045915]]]},"properties":{"parcel_id":"0000X00085000000"}},{"type":"Feature","geometry":{"type":"Polygon","coordinates":[[[-79.9428653,40.4045639],[-79.9427562,40.4045422],[-79.9426484,40.4048592],[-79.9427575,40.4048809],[-79.9428653,40.4045639]]]},"properties":{"parcel_id":"0000X00086000000"}},{"type":"Feature","geometry":{"type":"Polygon","coordinates":[[[-79.9427562,40.4045422],[-79.9426522,40.4045215],[-79.9425444,40.4048385],[-79.9426484,40.4048592],[-79.9427562,40.4045422]]]},"properties":{"parcel_id":"0000X00087000000"}},{"type":"Feature","geometry":{"type":"Polygon","coordinates":[[[-79.9426522,40.4045215],[-79.942537,40.4044986],[-79.9424292,40.4048156],[-79.9425444,40.4048385],[-79.9426522,40.4045215]]]},"properties":{"parcel_id":"0000X00088000000"}},{"type":"Feature","geometry":{"type":"Polygon","coordinates":[[[-79.942537,40.4044986],[-79.9424189,40.4044752],[-79.9423111,40.4047921],[-79.9424292,40.4048156],[-79.942537,40.4044986]]]},"properties":{"parcel_id":"0000X00089000000"}},{"type":"Feature","geometry":{"type":"Polygon","coordinates":[[[-79.9424189,40.4044752],[-79.9423033,40.4044522],[-79.9421955,40.4047692],[-79.9423111,40.4047921],[-79.9424189,40.4044752]]]},"properties":{"parcel_id":"0000X00090000000"}},{"type":"Feature","geometry":{"type":"Polygon","coordinates":[[[-79.9430226,40.4049336],[-79.9428963,40.4049085],[-79.9427885,40.4052255],[-79.9429148,40.4052506],[-79.9430226,40.4049336]]]},"properties":{"parcel_id":"0000X00091000000"}},{"type":"Feature","geometry":{"type":"Polygon","coordinates":[[[-79.9428963,40.4049085],[-79.9427575,40.4048809],[-79.9426496,40.4051979],[-79.9427885,40.4052255],[-79.9428963,40.4049085]]]},"properties":{"parcel_id":"0000X00092000000"}},{"type":"Feature","geometry":{"type":"Polygon","coordinates":[[[-79.9427575,40.4048809],[-79.9426484,40.4048592],[-79.9425406,40.4051762],[-79.9426496,40.4051979],[-79.9427575,40.4048809]]]},"properties":{"parcel_id":"0000X00093000000"}},{"type":"Feature","geometry":{"type":"Polygon","coordinates":[[[-79.9426484,40.4048592],[-79.9425444,40.4048385],[-79.9424365,40.4051555],[-79.9425406,40.4051762],[-79.9426484,40.4048592]]]},"properties":{"parcel_id":"0000X00094000000"}},{"type":"Feature","geometry":{"type":"Polygon","coordinates":[[[-79.9425444,40.4048385],[-79.9424292,40.4048156],[-79.9423214,40.4051326],[-79.9424365,40.4051555],[-79.9425444,40.4048385]]]},"properties":{"parcel_id":"0000X00095000000"}},{"type":"Feature","geometry":{"type":"Polygon","coordinates":[[[-79.9424292,40.4048156],[-79.9423111,40.4047921],[-79.9422033,40.4051091],[-79.9423214,40.4051326],[-79.9424292,40.4048156]]]},"properties":{"parcel_id":"0000X00096000000"}},{"type":"Feature","geometry":{"type":"Polygon","coordinates":[[[-79.9423111,40.4047921],[-79.9421955,40.4047692],[-79.9420877,40.4050861],[-79.9422033,40.4051091],[-79.9423111,40.4047921]]]},"properties":{"parcel_id":"0000X00097000000"}},{"type":"Feature","geometry":{"type":"Polygon","coordinates":[[[-79.9421296,40.4044176],[-79.9420187,40.4043956],[-79.9419109,40.4047126],[-79.9420217,40.4047346],[-79.9421296,40.4044176]]]},"properties":{"parcel_id":"0000X00098000000"}},{"type":"Feature","geometry":{"type":"Polygon","coordinates":[[[-79.9420187,40.4043956],[-79.9418923,40.4043705],[-79.9417845,40.4046874],[-79.9419109,40.4047126],[-79.9420187,40.4043956]]]},"properties":{"parcel_id":"0000X00099000000"}},{"type":"Feature","geometry":{"type":"Polygon","coordinates":[[[-79.9418923,40.4043705],[-79.9417703,40.4043462],[-79.9416624,40.4046632],[-79.9417845,40.4046874],[-79.9418923,40.4043705]]]},"properties":{"parcel_id":"0000X00100000000"}},{"type":"Feature","geometry":{"type":"Polygon","coordinates":[[[-79.9417703,40.4043462],[-79.9416383,40.40432],[-79.9415305,40.4046369],[-79.9416624,40.4046632],[-79.9417703,40.4043462]]]},"properties":{"parcel_id":"0000X00101000000"}},{"type":"Feature","geometry":{"type":"Polygon","coordinates":[[[-79.9416383,40.40432],[-79.941532,40.4042988],[-79.9414241,40.4046158],[-79.9415305,40.4046369],[-79.9416383,40.40432]]]},"properties":{"parcel_id":"0000X00102000000"}},{"type":"Feature","geometry":{"type":"Polygon","coordinates":[[[-79.941532,40.4042988],[-79.941413,40.4042752],[-79.9413052,40.4045921],[-79.9414241,40.4046158],[-79.941532,40.4042988]]]},"properties":{"parcel_id":"0000X00103000000"}},{"type":"Feature","geometry":{"type":"Polygon","coordinates":[[[-79.941413,40.4042752],[-79.9413025,40.4042532],[-79.9411946,40.4045702],[-79.9413052,40.4045921],[-79.941413,40.4042752]]]},"properties":{"parcel_id":"0000X00104000000"}},{"type":"Feature","geometry":{"type":"Polygon","coordinates":[[[-79.9420217,40.4047346],[-79.9419109,40.4047126],[-79.9418031,40.4050295],[-79.9419139,40.4050516],[-79.9420217,40.4047346]]]},"properties":{"parcel_id":"0000X00105000000"}},{"type":"Feature","geometry":{"type":"Polygon","coordinates":[[[-79.9419109,40.4047126],[-79.9417845,40.4046874],[-79.9416767,40.4050044],[-79.9418031,40.4050295],[-79.9419109,40.4047126]]]},"properties":{"parcel_id":"0000X00106000000"}},{"type":"Feature","geometry":{"type":"Polygon","coordinates":[[[-79.9417845,40.4046874],[-79.9416624,40.4046632],[-79.9415546,40.4049801],[-79.9416767,40.4050044],[-79.9417845,40.4046874]]]},"properties":{"parcel_id":"0000X00107000000"}},{"type":"Feature","geometry":{"type":"Polygon","coordinates":[[[-79.9416624,40.4046632],[-79.9415305,40.4046369],[-79.9414227,40.4049539],[-79.9415546,40.4049801],[-79.9416624,40.4046632]]]},"properties":{"parcel_id":"0000X00108000000"}},{"type":"Feature","geometry":{"type":"Polygon","coordinates":[[[-79.9415305,40.4046369],[-79.9414241,40.4046158],[-79.9413163,40.4049328],[-79.9414227,40.4049539],[-79.9415305,40.4046369]]]},"properties":{"parcel_id":"0000X00109000000"}},{"type":"Feature","geometry":{"type":"Polygon","coordinates":[[[-79.9414241,40.4046158],[-79.9413052,40.4045921],[-79.9411974,40.4049091],[-79.9413163,40.4049328],[-79.9414241,40.4046158]]]},"properties":{"parcel_id":"0000X00110000000"}},{"type":"Feature","geometry":{"type":"Polygon","coordinates":[[[-79.9413052,40.4045921],[-79.9411946,40.4045702],[-79.9410868,40.4048871],[-79.9411974,40.4049091],[-79.9413052,40.4045921]]]},"properties":{"parcel_id":"0000X00111000000"}},{"type":"Feature","geometry":{"type":"Polygon","coordinates":[[[-79.9448713,40.4057813],[-79.9447477,40.4057567],[-79.9446399,40.4060737],[-79.9447635,40.4060983],[-79.9448713,40.4057813]]]},"properties":{"parcel_id":"0000X00112000000"}},{"type":"Feature","geometry":{"type":"Polygon","coordinates":[[[-79.9447477,40.4057567],[-79.9446395,40.4057353],[-79.9445317,40.4060522],[-79.9446399,40.4060737],[-79.9447477,40.4057567]]]},"properties":{"parcel_id":"0000X00113000000"}},{"type":"Feature","geometry":{"type":"Polygon","coordinates":[[[-79.9446395,40.4057353],[-79.9445072,40.4057089],[-79.9443994,40.4060259],[-79.9445317,40.4060522],[-79.9446395,40.4057353]]]},"properties":{"parcel_id":"0000X00114000000"}},{"type":"Feature","geometry":{"type":"Polygon","coordinates":[[[-79.9445072,40.4057089],[-79.9444041,40.4056884],[-79.9442963,40.4060054],[-79.9443994,40.4060259],[-79.9445072,40.4057089]]]},"properties":{"parcel_id":"0000X00115000000"}},{"type":"Feature","geometry":{"type":"Polygon","coordinates":[[[-79.9444041,40.4056884],[-79.9442777,40.4056633],[-79.9441699,40.4059803],[-79.9442963,40.4060054],[-79.9444041,40.4056884]]]},"properties":{"parcel_id":"0000X00116000000"}},{"type":"Feature","geometry":{"type":"Polygon","coordinates":[[[-79.9442777,40.4056633],[-79.9441638,40.4056407],[-79.9440559,40.4059577],[-79.9441699,40.4059803],[-79.9442777,40.4056633]]]},"properties":{"parcel_id":"0000X00117000000"}},{"type":"Feature","geometry":{"type":"Polygon","coordinates":[[[-79.9441638,40.4056407],[-79.9440442,40.4056169],[-79.9439364,40.4059339],[-79.9440559,40.4059577],[-79.9441638,40.4056407]]]},"properties":{"parcel_id":"0000X00118000000"}},{"type":"Feature","geometry":{"type":"Polygon","coordinates":[[[-79.9447635,40.4060983],[-79.9446399,40.4060737],[-79.944532,40.4063907],[-79.9446557,40.4064153],[-79.9447635,40.4060983]]]},"properties":{"parcel_id":"0000X00119000000"}},{"type":"Feature","geometry":{"type":"Polygon","coordinates":[[[-79.9392887,40.421691],[-79.9391546,40.421708],[-79.9392205,40.4220119],[-79.9393546,40.4219949],[-79.9392887,40.421691]]]},"properties":{"parcel_id":"0000X00120000000"}},{"type":"Feature","geometry":{"type":"Polygon","coordinates":[[[-79.9391546,40.421708],[-79.9390334,40.4217233],[-79.9390994,40.4220273],[-79.9392205,40.4220119],[-79.9391546,40.421708]]]},"properties":{"parcel_id":"0000X00121000000"}},{"type":"Feature","geometry":{"type":"Polygon","coordinates":[[[-79.9390334,40.4217233],[-79.9388937,40.421741],[-79.9389597,40.422045],[-79.9390994,40.4220273],[-79.9390334,40.4217233]]]},"properties":{"parcel_id":"0000X00122000000"}},{"type":"Feature","geometry":{"type":"Polygon","coordinates":[[[-79.9388937,40.421741],[-79.9387764,40.4217559],[-79.9388424,40.4220599],[-79.9389597,40.422045],[-79.9388937,40.421741]]]},"properties":{"parcel_id":"0000X00123000000"}},{"type":"Feature","geometry":{"type":"Polygon","coordinates":[[[-79.9387764,40.4217559],[-79.9386744,40.4217688],[-79.9387404,40.4220728],[-79.9388424,40.4220599],[-79.9387764,40.4217559]]]},"properties":{"parcel_id":"0000X00124000000"}},{"type":"Feature","geometry":{"type":"Polygon","coordinates":[[[-79.9386744,40.4217688],[-79.9385565,40.4217838],[-79.9386225,40.4220878],[-79.9387404,40.4220728],[-79.9386744,40.4217688]]]},"properties":{"parcel_id":"0000X00125000000"}},{"type":"Feature","geometry":{"type":"Polygon","coordinates":[[[-79.9385565,40.4217838],[-79.9384454,40.4217979],[-79.9385114,40.4221018],[-79.9386225,40.4220878],[-79.9385565,40.4217838]]]},"properties":{"parcel_id":"0000X00126000000"}},{"type":"Feature","geometry":{"type":"Polygon","coordinates":[[[-79.9393546,40.4219949],[-79.9392205,40.4220119],[-79.9392865,40.4223159],[-79.9394206,40.4222989],[-79.9393546,40.4219949]]]},"properties":{"parcel_id":"0000X00127000000"}},{"type":"Feature","geometry":{"type":"Polygon","coordinates":[[[-79.9392205,40.4220119],[-79.9390994,40.4220273],[-79.9391653,40.4223312],[-79.9392865,40.4223159],[-79.9392205,40.4220119]]]},"properties":{"parcel_id":"0000X00128000000"}},{"type":"Feature","geometry":{"type":"Polygon","coordinates":[[[-79.9390994,40.4220273],[-79.9389597,40.422045],[-79.9390257,40.4223489],[-79.9391653,40.4223312],[-79.9390994,40.4220273]]]},"properties":{"parcel_id":"0000X00129000000"}},{"type":"Feature","geometry":{"type":"Polygon","coordinates":[[[-79.9389597,40.422045],[-79.9388424,40.4220599],[-79.9389083,40.4223638],[-79.9390257,40.4223489],[-79.9389597,40.422045]]]},"properties":{"parcel_id":"0000X00130000000"}},{"type":"Feature","geometry":{"type":"Polygon","coordinates":[[[-79.9388424,40.4220599],[-79.9387404,40.4220728],[-79.9388064,40.4223767],[-79.9389083,40.4223638],[-79.9388424,40.4220599]]]},"properties":{"parcel_id":"0000X00131000000"}},{"type":"Feature","geometry":{"type":"Polygon","coordinates":[[[-79.9387404,40.4220728],[-79.9386225,40.4220878],[-79.9386884,40.4223917],[-79.9388064,40.4223767],[-79.9387404,40.4220728]]]},"properties":{"parcel_id":"0000X00132000000"}},{"type":"Feature","geometry":{"type":"Polygon","coordinates":[[[-79.9386225,40.4220878],[-79.9385114,40.4221018],[-79.9385773,40.4224058],[-79.9386884,40.4223917],[-79.9386225,40.4220878]]]},"properties":{"parcel_id":"0000X00133000000"}},{"type":"Feature","geometry":{"type":"Polygon","coordinates":[[[-79.9382682,40.4218204],[-79.9381207,40.4218391],[-79.9381867,40.422143],[-79.9383342,40.4221243],[-79.9382682,40.4218204]]]},"properties":{"parcel_id":"0000X00134000000"}},{"type":"Feature","geometry":{"type":"Polygon","coordinates":[[[-79.9381207,40.4218391],[-79.9380029,40.421854],[-79.9380689,40.4221579],[-79.9381867,40.422143],[-79.9381207,40.4218391]]]},"properties":{"parcel_id":"0000X00135000000"}},{"type":"Feature","geometry":{"type":"Polygon","coordinates":[[[-79.9380029,40.421854],[-79.9378825,40.4218693],[-79.9379485,40.4221732],[-79.9380689,40.4221579],[-79.9380029,40.421854]]]},"properties":{"parcel_id":"0000X00136000000"}},{"type":"Feature","geometry":{"type":"Polygon","coordinates":[[[-79.9378825,40.4218693],[-79.9377684,40.4218837],[-79.9378344,40.4221877],[-79.9379485,40.4221732],[-79.9378825,40.4218693]]]},"properties":{"parcel_id":"0000X00137000000"}},{"type":"Feature","geometry":{"type":"Polygon","coordinates":[[[-79.9377684,40.4218837],[-79.9376373,40.4219003],[-79.9377033,40.4222043],[-79.9378344,40.4221877],[-79.9377684,40.4218837]]]},"properties":{"parcel_id":"0000X00138000000"}},{"type":"Feature","geometry":{"type":"Polygon","coordinates":[[[-79.9376373,40.4219003],[-79.9375303,40.4219139],[-79.9375963,40.4222179],[-79.9377033,40.4222043],[-79.9376373,40.4219003]]]},"properties":{"parcel_id":"0000X00139000000"}},{"type":"Feature","geometry":{"type":"Polygon","coordinates":[[[-79.9375303,40.4219139],[-79.9374249,40.4219273],[-79.9374909,40.4222312],[-79.9375963,40.4222179],[-79.9375303,40.4219139]]]},"properties":{"parcel_id":"0000X00140000000"}},{"type":"Feature","geometry":{"type":"Polygon","coordinates":[[[-79.9383342,40.4221243],[-79.9381867,40.422143],[-79.9382527,40.422447],[-79.9384002,40.4224283],[-79.9383342,40.4221243]]]},"properties":{"parcel_id":"0000X00141000000"}},{"type":"Feature","geometry":{"type":"Polygon","coordinates":[[[-79.9381867,40.422143],[-79.9380689,40.4221579],[-79.9381348,40.4224619],[-79.9382527,40.422447],[-79.9381867,40.422143]]]},"properties":{"parcel_id":"0000X00142000000"}},{"type":"Feature","geometry":{"type":"Polygon","coordinates":[[[-79.9380689,40.4221579],[-79.9379485,40.4221732],[-79.9380145,40.4224772],[-79.9381348,40.4224619],[-79.9380689,40.4221579]]]},"properties":{"parcel_id":"0000X00143000000"}},{"type":"Feature","geometry":{"type":"Polygon","coordinates":[[[-79.9379485,40.4221732],[-79.9378344,40.4221877],[-79.9379004,40.4224916],[-79.9380145,40.4224772],[-79.9379485,40.4221732]]]},"properties":{"parcel_id":"0000X00144000000"}},{"type":"Feature","geometry":{"type":"Polygon","coordinates":[[[-79.9378344,40.4221877],[-79.9377033,40.4222043],[-79.9377692,40.4225082],[-79.9379004,40.4224916],[-79.9378344,40.4221877]]]},"properties":{"parcel_id":"0000X00145000000"}},{"type":"Feature","geometry":{"type":"Polygon","coordinates":[[[-79.9377033,40.4222043],[-79.9375963,40.4222179],[-79.9376622,40.4225218],[-79.9377692,40.4225082],[-79.9377033,40.4222043]]]},"properties":{"parcel_id":"0000X00146000000"}},{"type":"Feature","geometry":{"type":"Polygon","coordinates":[[[-79.9375963,40.4222179],[-79.9374909,40.4222312],[-79.9375569,40.4225352],[-79.9376622,40.4225218],[-79.9375963,40.4222179]]]},"properties":{"parcel_id":"0000X00147000000"}},{"type":"Feature","geometry":{"type":"Polygon","coordinates":[[[-79.9372477,40.4219497],[-79.9371435,40.421963],[-79.9372094,40.4222669],[-79.9373137,40.4222537],[-79.9372477,40.4219497]]]},"properties":{"parcel_id":"0000X00148000000"}},{"type":"Feature","geometry":{"type":"Polygon","coordinates":[[[-79.9371435,40.421963],[-79.9369986,40.4219813],[-79.9370645,40.4222853],[-79.9372094,40.4222669],[-79.9371435,40.421963]]]},"properties":{"parcel_id":"0000X00149000000"}},{"type":"Feature","geometry":{"type":"Polygon","coordinates":[[[-79.9369986,40.4219813],[-79.9368949,40.4219945],[-79.9369608,40.4222984],[-79.9370645,40.4222853],[-79.9369986,40.4219813]]]},"properties":{"parcel_id":"0000X00150000000"}},{"type":"Feature","geometry":{"type":"Polygon","coordinates":[[[-79.9368949,40.4219945],[-79.9367854,40.4220084],[-79.9368514,40.4223123],[-79.9369608,40.4222984],[-79.9368949,40.4219945]]]},"properties":{"parcel_id":"0000X00151000000"}},{"type":"Feature","geometry":{"type":"Polygon","coordinates":[[[-79.9367854,40.4220084],[-79.9366705,40.4220229],[-79.9367365,40.4223269],[-79.9368514,40.4223123],[-79.9367854,40.4220084]]]},"properties":{"parcel_id":"0000X00152000000"}},{"type":"Feature","geometry":{"type":"Polygon","coordinates":[[[-79.9366705,40.4220229],[-79.9365449,40.4220388],[-79.9366108,40.4223428],[-79.9367365,40.4223269],[-79.9366705,40.4220229]]]},"properties":{"parcel_id":"0000X00153000000"}},{"type":"Feature","geometry":{"type":"Polygon","coordinates":[[[-79.9365449,40.4220388],[-79.9364044,40.4220566],[-79.9364704,40.4223606],[-79.9366108,40.4223428],[-79.9365449,40.4220388]]]},"properties":{"parcel_id":"0000X00154000000"}},{"type":"Feature","geometry":{"type":"Polygon","coordinates":[[[-79.9373137,40.4222537],[-79.9372094,40.4222669],[-79.9372754,40.4225709],[-79.9373797,40.4225576],[-79.9373137,40.4222537]]]},"properties":{"parcel_id":"0000X00155000000"}},{"type":"Feature","geometry":{"type":"Polygon","coordinates":[[[-79.9372094,40.4222669],[-79.9370645,40.4222853],[-79.9371305,40.4225892],[-79.9372754,40.4225709],[-79.9372094,40.4222669]]]},"properties":{"parcel_id":"0000X00156000000"}},{"type":"Feature","geometry":{"type":"Polygon","coordinates":[[[-79.9370645,40.4222853],[-79.9369608,40.4222984],[-79.9370268,40.4226024],[-79.9371305,40.4225892],[-79.9370645,40.4222853]]]},"properties":{"parcel_id":"0000X00157000000"}},{"type":"Feature","geometry":{"type":"Polygon","coordinates":[[[-79.9369608,40.4222984],[-79.9368514,40.4223123],[-79.9369174,40.4226163],[-79.9370268,40.4226024],[-79.9369608,40.4222984]]]},"properties":{"parcel_id":"0000X00158000000"}},{"type":"Feature","geometry":{"type":"Polygon","coordinates":[[[-79.9368514,40.4223123],[-79.9367365,40.4223269],[-79.9368025,40.4226308],[-79.9369174,40.4226163],[-79.9368514,40.4223123]]]},"properties":{"parcel_id":"0000X00159000000"}},{"type":"Feature","geometry":{"type":"Polygon","coordinates":[[[-79.9367365,40.4223269],[-79.9366108,40.4223428],[-79.9366768,40.4226468],[-79.9368025,40.4226308],[-79.9367365,40.4223269]]]},"properties":{"parcel_id":"0000X00160000000"}},{"type":"Feature","geometry":{"type":"Polygon","coordinates":[[[-79.9366108,40.4223428],[-79.9364704,40.4223606],[-79.9365364,40.4226646],[-79.9366768,40.4226468],[-79.9366108,40.4223428]]]},"properties":{"parcel_id":"0000X00161000000"}},{"type":"Feature","geometry":{"type":"Polygon","coordinates":[[[-79.93945,40.4224343],[-79.9393162,40.4224512],[-79.9393822,40.4227552],[-79.939516,40.4227382],[-79.93945,40.4224343]]]},"properties":{"parcel_id":"0000X00162000000"}},{"type":"Feature","geometry":{"type":"Polygon","coordinates":[[[-79.9393162,40.4224512],[-79.9391819,40.4224683],[-79.9392479,40.4227722],[-79.9393822,40.4227552],[-79.9393162,40.4224512]]]},"properties":{"parcel_id":"0000X00163000000"}},{"type":"Feature","geometry":{"type":"Polygon","coordinates":[[[-79.9391819,40.4224683],[-79.9390801,40.4224812],[-79.9391461,40.4227851],[-79.9392479,40.4227722],[-79.9391819,40.4224683]]]},"properties":{"parcel_id":"0000X00164000000"}},{"type":"Feature","geometry":{"type":"Polygon","coordinates":[[[-79.9390801,40.4224812],[-79.9389584,40.4224966],[-79.9390244,40.4228006],[-79.9391461,40.4227851],[-79.9390801,40.4224812]]]},"properties":{"parcel_id":"0000X00165000000"}},{"type":"Feature","geometry":{"type":"Polygon","coordinates":[[[-79.9389584,40.4224966],[-79.938826,40.4225134],[-79.938892,40.4228173],[-79.9390244,40.4228006],[-79.9389584,40.4224966]]]},"properties":{"parcel_id":"0000X00166000000"}},{"type":"Feature","geometry":{"type":"Polygon","coordinates":[[[-79.938826,40.4225134],[-79.9387093,40.4225282],[-79.9387753,40.4228321],[-79.938892,40.4228173],[-79.938826,40.4225134]]]},"properties":{"parcel_id":"0000X00167000000"}},{"type":"Feature","geometry":{"type":"Polygon","coordinates":[[[-79.9387093,40.4225282],[-79.9386067,40.4225412],[-79.9386727,40.4228451],[-79.9387753,40.4228321],[-79.9387093,40.4225282]]]},"properties":{"parcel_id":"0000X00168000000"}},{"type":"Feature","geometry":{"type":"Polygon","coordinates":[[[-79.939516,40.4227382],[-79.9393822,40.4227552],[-79.9394482,40.4230591],[-79.939582,40.4230422],[-79.939516,40.4227382]]]},"properties":{"parcel_id":"0000X00169000000"}},{"type":"Feature","geometry":{"type":"Polygon","coordinates":[[[-79.9393822,40.4227552],[-79.9392479,40.4227722],[-79.9393139,40.4230762],[-79.9394482,40.4230591],[-79.9393822,40.4227552]]]},"properties":{"parcel_id":"0000X00170000000"}},{"type":"Feature","geometry":{"type":"Polygon","coordinates":[[[-79.9392479,40.4227722],[-79.9391461,40.4227851],[-79.9392121,40.4230891],[-79.9393139,40.4230762],[-79.9392479,40.4227722]]]},"properties":{"parcel_id":"0000X00171000000"}},{"type":"Feature","geometry":{"type":"Polygon","coordinates":[[[-79.9391461,40.4227851],[-79.9390244,40.4228006],[-79.9390904,40.4231045],[-79.9392121,40.4230891],[-79.9391461,40.4227851]]]},"properties":{"parcel_id":"0000X00172000000"}},{"type":"Feature","geometry":{"type":"Polygon","coordinates":[[[-79.9390244,40.4228006],[-79.938892,40.4228173],[-79.938958,40.4231213],[-79.9390904,40.4231045],[-79.9390244,40.4228006]]]},"properties":{"parcel_id":"0000X00173000000"}},{"type":"Feature","geometry":{"type":"Polygon","coordinates":[[[-79.938892,40.4228173],[-79.9387753,40.4228321],[-79.9388413,40.4231361],[-79.938958,40.4231213],[-79.938892,40.4228173]]]},"properties":{"parcel_id":"0000X00174000000"}},{"type":"Feature","geometry":{"type":"Polygon","coordinates":[[[-79.9387753,40.4228321],[-79.9386727,40.4228451],[-79.9387387,40.4231491],[-79.9388413,40.4231361],[-79.9387753,40.4228321]]]},"properties":{"parcel_id":"0000X00175000000"}},{"type":"Feature","geometry":{"type":"Polygon","coordinates":[[[-79.9384296,40.4225637],[-79.9383167,40.422578],[-79.9383826,40.4228819],[-79.9384955,40.4228676],[-79.9384296,40.4225637]]]},"properties":{"parcel_id":"0000X00176000000"}},{"type":"Feature","geometry":{"type":"Polygon","coordinates":[[[-79.9383167,40.422578],[-79.938202,40.4225925],[-79.938268,40.4228965],[-79.9383826,40.4228819],[-79.9383167,40.422578]]]},"properties":{"parcel_id":"0000X00177000000"}},{"type":"Feature","geometry":{"type":"Polygon","coordinates":[[[-79.938202,40.4225925],[-79.9380982,40.4226057],[-79.9381642,40.4229096],[-79.938268,40.4228965],[-79.938202,40.4225925]]]},"properties":{"parcel_id":"0000X00178000000"}},{"type":"Feature","geometry":{"type":"Polygon","coordinates":[[[-79.9380982,40.4226057],[-79.9379796,40.4226207],[-79.9380456,40.4229247],[-79.9381642,40.4229096],[-79.9380982,40.4226057]]]},"properties":{"parcel_id":"0000X00179000000"}},{"type":"Feature","geometry":{"type":"Polygon","coordinates":[[[-79.9379796,40.4226207],[-79.9378417,40.4226382],[-79.9379077,40.4229421],[-79.9380456,40.4229247],[-79.9379796,40.4226207]]]},"properties":{"parcel_id":"0000X00180000000"}},{"type":"Feature","geometry":{"type":"Polygon","coordinates":[[[-79.9378417,40.4226382],[-79.9377142,40.4226544],[-79.9377802,40.4229583],[-79.9379077,40.4229421],[-79.9378417,40.4226382]]]},"properties":{"parcel_id":"0000X00181000000"}},{"type":"Feature","geometry":{"type":"Polygon","coordinates":[[[-79.9377142,40.4226544],[-79.9375863,40.4226706],[-79.9376522,40.4229745],[-79.9377802,40.4229583],[-79.9377142,40.4226544]]]},"properties":{"parcel_id":"0000X00182000000"}},{"type":"Feature","geometry":{"type":"Polygon","coordinates":[[[-79.9384955,40.4228676],[-79.9383826,40.4228819],[-79.9384486,40.4231859],[-79.9385615,40.4231716],[-79.9384955,40.4228676]]]},"properties":{"parcel_id":"0000X00183000000"}},{"type":"Feature","geometry":{"type":"Polygon","coordinates":[[[-79.9383826,40.4228819],[-79.938268,40.4228965],[-79.938334,40.4232004],[-79.9384486,40.4231859],[-79.9383826,40.4228819]]]},"properties":{"parcel_id":"0000X00184000000"}},{"type":"Feature","geometry":{"type":"Polygon","coordinates":[[[-79.938268,40.4228965],[-79.9381642,40.4229096],[-79.9382301,40.4232136],[-79.938334,40.4232004],[-79.938268,40.4228965]]]},"properties":{"parcel_id":"0000X00185000000"}},{"type":"Feature","geometry":{"type":"Polygon","coordinates":[[[-79.9381642,40.4229096],[-79.9380456,40.4229247],[-79.9381116,40.4232286],[-79.9382301,40.4232136],[-79.9381642,40.4229096]]]},"properties":{"parcel_id":"0000X00186000000"}},{"type":"Feature","geometry":{"type":"Polygon","coordinates":[[[-79.9380456,40.4229247],[-79.9379077,40.4229421],[-79.9379737,40.4232461],[-79.9381116,40.4232286],[-79.9380456,40.4229247]]]},"properties":{"parcel_id":"0000X00187000000"}},{"type":"Feature","geometry":{"type":"Polygon","coordinates":[[[-79.9379077,40.4229421],[-79.9377802,40.4229583],[-79.9378462,40.4232623],[-79.9379737,40.4232461],[-79.9379077,40.4229421]]]},"properties":{"parcel_id":"0000X00188000000"}},{"type":"Feature","geometry":{"type":"Polygon","coordinates":[[[-79.9377802,40.4229583],[-79.9376522,40.4229745],[-79.9377182,40.4232785],[-79.9378462,40.4232623],[-79.9377802,40.4229583]]]},"properties":{"parcel_id":"0000X00189000000"}},{"type":"Feature","geometry":{"type":"Polygon","coordinates":[[[-79.9374091,40.422693],[-79.9373028,40.4227065],[-79.9373688,40.4230105],[-79.9374751,40.422997],[-79.9374091,40.422693]]]},"properties":{"parcel_id":"0000X00190000000"}},{"type":"Feature","geometry":{"type":"Polygon","coordinates":[[[-79.9373028,40.4227065],[-79.9371965,40.42272],[-79.9372625,40.4230239],[-79.9373688,40.4230105],[-79.9373028,40.4227065]]]},"properties":{"parcel_id":"0000X00191000000"}},{"type":"Feature","geometry":{"type":"Polygon","coordinates":[[[-79.9371965,40.42272],[-79.9370604,40.4227372],[-79.9371264,40.4230412],[-79.9372625,40.4230239],[-79.9371965,40.42272]]]},"properties":{"parcel_id":"0000X00192000000"}},{"type":"Feature","geometry":{"type":"Polygon","coordinates":[[[-79.9370604,40.4227372],[-79.9369174,40.4227554],[-79.9369834,40.4230593],[-79.9371264,40.4230412],[-79.9370604,40.4227372]]]},"properties":{"parcel_id":"0000X00193000000"}},{"type":"Feature","geometry":{"type":"Polygon","coordinates":[[[-79.9369174,40.4227554],[-79.9368043,40.4227697],[-79.9368703,40.4230737],[-79.9369834,40.4230593],[-79.9369174,40.4227554]]]},"properties":{"parcel_id":"0000X00194000000"}},{"type":"Feature","geometry":{"type":"Polygon","coordinates":[[[-79.9368043,40.4227697],[-79.9366957,40.4227835],[-79.9367617,40.4230874],[-79.9368703,40.4230737],[-79.9368043,40.4227697]]]},"properties":{"parcel_id":"0000X00195000000"}},{"type":"Feature","geometry":{"type":"Polygon","coordinates":[[[-79.9366957,40.4227835],[-79.9365658,40.4228],[-79.9366318,40.4231039],[-79.9367617,40.4230874],[-79.9366957,40.4227835]]]},"properties":{"parcel_id":"0000X00196000000"}},{"type":"Feature","geometry":{"type":"Polygon","coordinates":[[[-79.9374751,40.422997],[-79.9373688,40.4230105],[-79.9374348,40.4233144],[-79.937541,40.4233009],[-79.9374751,40.422997]]]},"properties":{"parcel_id":"0000X00197000000"}},{"type":"Feature","geometry":{"type":"Polygon","coordinates":[[[-79.9373688,40.4230105],[-79.9372625,40.4230239],[-79.9373285,40.4233279],[-79.9374348,40.4233144],[-79.9373688,40.4230105]]]},"properties":{"parcel_id":"0000X00198000000"}},{"type":"Feature","geometry":{"type":"Polygon","coordinates":[[[-79.9372625,40.4230239],[-79.9371264,40.4230412],[-79.9371923,40.4233452],[-79.9373285,40.4233279],[-79.9372625,40.4230239]]]},"properties":{"parcel_id":"0000X00199000000"}},{"type":"Feature","geometry":{"type":"Polygon","coordinates":[[[-79.9371264,40.4230412],[-79.9369834,40.4230593],[-79.9370493,40.4233633],[-79.9371923,40.4233452],[-79.9371264,40.4230412]]]},"properties":{"parcel_id":"0000X00200000000"}},{"type":"Feature","geometry":{"type":"Polygon","coordinates":[[[-79.9369834,40.4230593],[-79.9368703,40.4230737],[-79.9369363,40.4233776],[-79.9370493,40.4233633],[-79.9369834,40.4230593]]]},"properties":{"parcel_id":"0000X00201000000"}},{"type":"Feature","geometry":{"type":"Polygon","coordinates":[[[-79.9368703,40.4230737],[-79.9367617,40.4230874],[-79.9368276,40.4233914],[-79.9369363,40.4233776],[-79.9368703,40.4230737]]]},"properties":{"parcel_id":"0000X00202000000"}},{"type":"Feature","geometry":{"type":"Polygon","coordinates":[[[-79.9367617,40.4230874],[-79.9366318,40.4231039],[-79.9366977,40.4234079],[-79.9368276,40.4233914],[-79.9367617,40.4230874]]]},"properties":{"parcel_id":"0000X00203000000"}},{"type":"Feature","geometry":{"type":"Polygon","coordinates":[[[-79.9396114,40.4231776],[-79.939491,40.4231928],[-79.9395569,40.4234968],[-79.9396774,40.4234815],[-79.9396114,40.4231776]]]},"properties":{"parcel_id":"0000X00204000000"}},{"type":"Feature","geometry":{"type":"Polygon","coordinates":[[[-79.939491,40.4231928],[-79.9393727,40.4232078],[-79.9394387,40.4235118],[-79.9395569,40.4234968],[-79.939491,40.4231928]]]},"properties":{"parcel_id":"0000X00205000000"}},{"type":"Feature","geometry":{"type":"Polygon","coordinates":[[[-79.9393727,40.4232078],[-79.939271,40.4232207],[-79.9393369,40.4235247],[-79.9394387,40.4235118],[-79.9393727,40.4232078]]]},"properties":{"parcel_id":"0000X00206000000"}},{"type":"Feature","geometry":{"type":"Polygon","coordinates":[[[-79.939271,40.4232207],[-79.9391563,40.4232353],[-79.9392223,40.4235392],[-79.9393369,40.4235247],[-79.939271,40.4232207]]]},"properties":{"parcel_id":"0000X00207000000"}},{"type":"Feature","geometry":{"type":"Polygon","coordinates":[[[-79.9391563,40.4232353],[-79.9390295,40.4232514],[-79.9390954,40.4235553],[-79.9392223,40.4235392],[-79.9391563,40.4232353]]]},"properties":{"parcel_id":"0000X00208000000"}},{"type":"Feature","geometry":{"type":"Polygon","coordinates":[[[-79.9390295,40.4232514],[-79.9388984,40.423268],[-79.9389644,40.4235719],[-79.9390954,40.4235553],[-79.9390295,40.4232514]]]},"properties":{"parcel_id":"0000X00209000000"}},{"type":"Feature","geometry":{"type":"Polygon","coordinates":[[[-79.928759,40.3979625],[-79.9286434,40.3979183],[-79.9284976,40.398141],[-79.9286132,40.3981853],[-79.928759,40.3979625]]]},"properties":{"parcel_id":"0000X00210000000"}},{"type":"Feature","geometry":{"type":"Polygon","coordinates":[[[-79.9286434,40.3979183],[-79.9285319,40.3978756],[-79.9283861,40.3980984],[-79.9284976,40.398141],[-79.9286434,40.3979183]]]},"properties":{"parcel_id":"0000X00211000000"}},{"type":"Feature","geometry":{"type":"Polygon","coordinates":[[[-79.9285319,40.3978756],[-79.9284305,40.3978369],[-79.9282847,40.3980596],[-79.9283861,40.3980984],[-79.9285319,40.3978756]]]},"properties":{"parcel_id":"0000X00212000000"}},{"type":"Feature","geometry":{"type":"Polygon","coordinates":[[[-79.9284305,40.3978369],[-79.928331,40.3977988],[-79.9281852,40.3980215],[-79.9282847,40.3980596],[-79.9284305,40.3978369]]]},"properties":{"parcel_id":"0000X00213000000"}},{"type":"Feature","geometry":{"type":"Polygon","coordinates":[[[-79.928331,40.3977988],[-79.9282381,40.3977633],[-79.9280923,40.397986],[-79.9281852,40.3980215],[-79.928331,40.3977988]]]},"properties":{"parcel_id":"0000X00214000000"}},{"type":"Feature","geometry":{"type":"Polygon","coordinates":[[[-79.9282381,40.3977633],[-79.9281183,40.3977174],[-79.9279725,40.3979401],[-79.9280923,40.397986],[-79.9282381,40.3977633]]]},"properties":{"parcel_id":"0000X00215000000"}},{"type":"Feature","geometry":{"type":"Polygon","coordinates":[[[-79.9281183,40.3977174],[-79.9279948,40.3976702],[-79.927849,40.3978929],[-79.9279725,40.3979401],[-79.9281183,40.3977174]]]},"properties":{"parcel_id":"0000X00216000000"}},{"type":"Feature","geometry":{"type":"Polygon","coordinates":[[[-79.9286132,40.3981853],[-79.9284976,40.398141],[-79.9283518,40.3983638],[-79.9284674,40.398408],[-79.9286132,40.3981853]]]},"properties":{"parcel_id":"0000X00217000000"}},{"type":"Feature","geometry":{"type":"Polygon","coordinates":[[[-79.9284976,40.398141],[-79.9283861,40.3980984],[-79.9282403,40.3983211],[-79.9283518,40.3983638],[-79.9284976,40.398141]]]},"properties":{"parcel_id":"0000X00218000000"}},{"type":"Feature","geometry":{"type":"Polygon","coordinates":[[[-79.9283861,40.3980984],[-79.9282847,40.3980596],[-79.9281389,40.3982823],[-79.9282403,40.3983211],[-79.9283861,40.3980984]]]},"properties":{"parcel_id":"0000X00219000000"}},{"type":"Feature","geometry":{"type":"Polygon","coordinates":[[[-79.9282847,40.3980596],[-79.9281852,40.3980215],[-79.9280394,40.3982442],[-79.9281389,40.3982823],[-79.9282847,40.3980596]]]},"properties":{"parcel_id":"0000X00220000000"}},{"type":"Feature","geometry":{"type":"Polygon","coordinates":[[[-79.9281852,40.3980215],[-79.9280923,40.397986],[-79.9279465,40.3982087],[-79.9280394,40.3982442],[-79.9281852,40.3980215]]]},"properties":{"parcel_id":"0000X00221000000"}},{"type":"Feature","geometry":{"type":"Polygon","coordinates":[[[-79.9280923,40.397986],[-79.9279725,40.3979401],[-79.9278267,40.3981628],[-79.9279465,40.3982087],[-79.9280923,40.397986]]]},"properties":{"parcel_id":"0000X00222000000"}},{"type":"Feature","geometry":{"type":"Polygon","coordinates":[[[-79.9279725,40.3979401],[-79.927849,40.3978929],[-79.9277032,40.3981156],[-79.9278267,40.3981628],[-79.9279725,40.3979401]]]},"properties":{"parcel_id":"0000X00223000000"}},{"type":"Feature","geometry":{"type":"Polygon","coordinates":[[[-79.9278343,40.3976087],[-79.9277127,40.3975622],[-79.9275669,40.3977849],[-79.9276885,40.3978315],[-79.9278343,40.3976087]]]},"properties":{"parcel_id":"0000X00224000000"}},{"type":"Feature","geometry":{"type":"Polygon","coordinates":[[[-79.9277127,40.3975622],[-79.9276091,40.3975226],[-79.9274633,40.3977453],[-79.9275669,40.3977849],[-79.9277127,40.3975622]]]},"properties":{"parcel_id":"0000X00225000000"}},{"type":"Feature","geometry":{"type":"Polygon","coordinates":[[[-79.9276091,40.3975226],[-79.9274959,40.3974792],[-79.9273501,40.397702],[-79.9274633,40.3977453],[-79.9276091,40.3975226]]]},"properties":{"parcel_id":"0000X00226000000"}},{"type":"Feature","geometry":{"type":"Polygon","coordinates":[[[-79.9274959,40.3974792],[-79.9273938,40.3974402],[-79.927248,40.3976629],[-79.9273501,40.397702],[-79.9274959,40.3974792]]]},"properties":{"parcel_id":"0000X00227000000"}},{"type":"Feature","geometry":{"type":"Polygon","coordinates":[[[-79.9273938,40.3974402],[-79.9272915,40.397401],[-79.9271457,40.3976237],[-79.927248,40.3976629],[-79.9273938,40.3974402]]]},"properties":{"parcel_id":"0000X00228000000"}},{"type":"Feature","geometry":{"type":"Polygon","coordinates":[[[-79.9272915,40.397401],[-79.9271826,40.3973594],[-79.9270368,40.3975821],[-79.9271457,40.3976237],[-79.9272915,40.397401]]]},"properties":{"parcel_id":"0000X00229000000"}},{"type":"Feature","geometry":{"type":"Polygon","coordinates":[[[-79.9271826,40.3973594],[-79.9270701,40.3973163],[-79.9269243,40.3975391],[-79.9270368,40.3975821],[-79.9271826,40.3973594]]]},"properties":{"parcel_id":"0000X00230000000"}},{"type":"Feature","geometry":{"type":"Polygon","coordinates":[[[-79.9276885,40.3978315],[-79.9275669,40.3977849],[-79.9274211,40.3980077],[-79.9275427,40.3980542],[-79.9276885,40.3978315]]]},"properties":{"parcel_id":"0000X00231000000"}},{"type":"Feature","geometry":{"type":"Polygon","coordinates":[[[-79.9275669,40.3977849],[-79.9274633,40.3977453],[-79.9273175,40.397968],[-79.9274211,40.3980077],[-79.9275669,40.3977849]]]},"properties":{"parcel_id":"0000X00232000000"}},{"type":"Feature","geometry":{"type":"Polygon","coordinates":[[[-79.9274633,40.3977453],[-79.9273501,40.397702],[-79.9272043,40.3979247],[-79.9273175,40.397968],[-79.9274633,40.3977453]]]},"properties":{"parcel_id":"0000X00233000000"}},{"type":"Feature","geometry":{"type":"Polygon","coordinates":[[[-79.9273501,40.397702],[-79.927248,40.3976629],[-79.9271022,40.3978856],[-79.9272043,40.3979247],[-79.9273501,40.397702]]]},"properties":{"parcel_id":"0000X00234000000"}},{"type":"Feature","geometry":{"type":"Polygon","coordinates":[[[-79.927248,40.3976629],[-79.9271457,40.3976237],[-79.9269999,40.3978465],[-79.9271022,40.3978856],[-79.927248,40.3976629]]]},"properties":{"parcel_id":"0000X00235000000"}},{"type":"Feature","geometry":{"type":"Polygon","coordinates":[[[-79.9271457,40.3976237],[-79.9270368,40.3975821],[-79.926891,40.3978048],[-79.9269999,40.3978465],[-79.9271457,40.3976237]]]},"properties":{"parcel_id":"0000X00236000000"}},{"type":"Feature","geometry":{"type":"Polygon","coordinates":[[[-79.9270368,40.3975821],[-79.9269243,40.3975391],[-79.9267785,40.3977618],[-79.926891,40.3978048],[-79.9270368,40.3975821]]]},"properties":{"parcel_id":"0000X00237000000"}},{"type":"Feature","geometry":{"type":"Polygon","coordinates":[[[-79.9269096,40.3972549],[-79.9268051,40.3972149],[-79.9266593,40.3974376],[-79.9267638,40.3974776],[-79.9269096,40.3972549]]]},"properties":{"parcel_id":"0000X00238000000"}},{"type":"Feature","geometry":{"type":"Polygon","coordinates":[[[-79.9268051,40.3972149],[-79.9266854,40.3971691],[-79.9265396,40.3973918],[-79.9266593,40.3974376],[-79.9268051,40.3972149]]]},"properties":{"parcel_id":"0000X00239000000"}},{"type":"Feature","geometry":{"type":"Polygon","coordinates":[[[-79.9266854,40.3971691],[-79.9265819,40.3971295],[-79.9264361,40.3973522],[-79.9265396,40.3973918],[-79.9266854,40.3971691]]]},"properties":{"parcel_id":"0000X00240000000"}},{"type":"Feature","geometry":{"type":"Polygon","coordinates":[[[-79.9265819,40.3971295],[-79.9264636,40.3970842],[-79.9263178,40.397307],[-79.9264361,40.3973522],[-79.9265819,40.3971295]]]},"properties":{"parcel_id":"0000X00241000000"}},{"type":"Feature","geometry":{"type":"Polygon","coordinates":[[[-79.9264636,40.3970842],[-79.9263488,40.3970403],[-79.926203,40.397263],[-79.9263178,40.397307],[-79.9264636,40.3970842]]]},"properties":{"parcel_id":"0000X00242000000"}},{"type":"Feature","geometry":{"type":"Polygon","coordinates":[[[-79.9263488,40.3970403],[-79.9262466,40.3970012],[-79.9261008,40.3972239],[-79.926203,40.397263],[-79.9263488,40.3970403]]]},"properties":{"parcel_id":"0000X00243000000"}},{"type":"Feature","geometry":{"type":"Polygon","coordinates":[[[-79.9262466,40.3970012],[-79.9261455,40.3969625],[-79.9259997,40.3971852],[-79.9261008,40.3972239],[-79.9262466,40.3970012]]]},"properties":{"parcel_id":"0000X00244000000"}},{"type":"Feature","geometry":{"type":"Polygon","coordinates":[[[-79.9267638,40.3974776],[-79.9266593,40.3974376],[-79.9265135,40.3976604],[-79.926618,40.3977003],[-79.9267638,40.3974776]]]},"properties":{"parcel_id":"0000X00245000000"}},{"type":"Feature","geometry":{"type":"Polygon","coordinates":[[[-79.9266593,40.3974376],[-79.9265396,40.3973918],[-79.9263938,40.3976146],[-79.9265135,40.3976604],[-79.9266593,40.3974376]]]},"properties":{"parcel_id":"0000X00246000000"}},{"type":"Feature","geometry":{"type":"Polygon","coordinates":[[[-79.9265396,40.3973918],[-79.9264361,40.3973522],[-79.9262902,40.3975749],[-79.9263938,40.3976146],[-79.9265396,40.3973918]]]},"properties":{"parcel_id":"0000X00247000000"}},{"type":"Feature","geometry":{"type":"Polygon","coordinates":[[[-79.9264361,40.3973522],[-79.9263178,40.397307],[-79.926172,40.3975297],[-79.9262902,40.3975749],[-79.9264361,40.3973522]]]},"properties":{"parcel_id":"0000X00248000000"}},{"type":"Feature","geometry":{"type":"Polygon","coordinates":[[[-79.9263178,40.397307],[-79.926203,40.397263],[-79.9260572,40.3974858],[-79.926172,40.3975297],[-79.9263178,40.397307]]]},"properties":{"parcel_id":"0000X00249000000"}},{"type":"Feature","geometry":{"type":"Polygon","coordinates":[[[-79.926203,40.397263],[-79.9261008,40.3972239],[-79.925955,40.3974466],[-79.9260572,40.3974858],[-79.926203,40.397263]]]},"properties":{"parcel_id":"0000X00250000000"}},{"type":"Feature","geometry":{"type":"Polygon","coordinates":[[[-79.9261008,40.3972239],[-79.9259997,40.3971852],[-79.9258539,40.3974079],[-79.925955,40.3974466],[-79.9261008,40.3972239]]]},"properties":{"parcel_id":"0000X00251000000"}},{"type":"Feature","geometry":{"type":"Polygon","coordinates":[[[-79.9283871,40.3985307],[-79.9282739,40.3984875],[-79.9281281,40.3987102],[-79.9282413,40.3987535],[-79.9283871,40.3985307]]]},"properties":{"parcel_id":"0000X00252000000"}},{"type":"Feature","geometry":{"type":"Polygon","coordinates":[[[-79.9282739,40.3984875],[-79.9281803,40.3984516],[-79.9280345,40.3986744],[-79.9281281,40.3987102],[-79.9282739,40.3984875]]]},"properties":{"parcel_id":"0000X00253000000"}},{"type":"Feature","geometry":{"type":"Polygon","coordinates":[[[-79.9281803,40.3984516],[-79.9280687,40.3984089],[-79.9279229,40.3986317],[-79.9280345,40.3986744],[-79.9281803,40.3984516]]]},"properties":{"parcel_id":"0000X00254000000"}},{"type":"Feature","geometry":{"type":"Polygon","coordinates":[[[-79.9280687,40.3984089],[-79.9279451,40.3983616],[-79.9277993,40.3985844],[-79.9279229,40.3986317],[-79.9280687,40.3984089]]]},"properties":{"parcel_id":"0000X00255000000"}},{"type":"Feature","geometry":{"type":"Polygon","coordinates":[[[-79.9279451,40.3983616],[-79.9278402,40.3983215],[-79.9276944,40.3985442],[-79.9277993,40.3985844],[-79.9279451,40.3983616]]]},"properties":{"parcel_id":"0000X00256000000"}},{"type":"Feature","geometry":{"type":"Polygon","coordinates":[[[-79.9278402,40.3983215],[-79.927739,40.3982828],[-79.9275932,40.3985055],[-79.9276944,40.3985442],[-79.9278402,40.3983215]]]},"properties":{"parcel_id":"0000X00257000000"}},{"type":"Feature","geometry":{"type":"Polygon","coordinates":[[[-79.927739,40.3982828],[-79.9276229,40.3982383],[-79.9274771,40.3984611],[-79.9275932,40.3985055],[-79.927739,40.3982828]]]},"properties":{"parcel_id":"0000X00258000000"}},{"type":"Feature","geometry":{"type":"Polygon","coordinates":[[[-79.9282413,40.3987535],[-79.9281281,40.3987102],[-79.9279823,40.3989329],[-79.9280955,40.3989762],[-79.9282413,40.3987535]]]},"properties":{"parcel_id":"0000X00259000000"}},{"type":"Feature","geometry":{"type":"Polygon","coordinates":[[[-79.9281281,40.3987102],[-79.9280345,40.3986744],[-79.9278887,40.3988971],[-79.9279823,40.3989329],[-79.9281281,40.3987102]]]},"properties":{"parcel_id":"0000X00260000000"}},{"type":"Feature","geometry":{"type":"Polygon","coordinates":[[[-79.9280345,40.3986744],[-79.9279229,40.3986317],[-79.9277771,40.3988544],[-79.9278887,40.3988971],[-79.9280345,40.3986744]]]},"properties":{"parcel_id":"0000X00261000000"}},{"type":"Feature","geometry":{"type":"Polygon","coordinates":[[[-79.9279229,40.3986317],[-79.9277993,40.3985844],[-79.9276535,40.3988071],[-79.9277771,40.3988544],[-79.9279229,40.3986317]]]},"properties":{"parcel_id":"0000X00262000000"}},{"type":"Feature","geometry":{"type":"Polygon","coordinates":[[[-79.9277993,40.3985844],[-79.9276944,40.3985442],[-79.9275486,40.3987669],[-79.9276535,40.3988071],[-79.9277993,40.3985844]]]},"properties":{"parcel_id":"0000X00263000000"}},{"type":"Feature","geometry":{"type":"Polygon","coordinates":[[[-79.9276944,40.3985442],[-79.9275932,40.3985055],[-79.9274474,40.3987282],[-79.9275486,40.3987669],[-79.9276944,40.3985442]]]},"properties":{"parcel_id":"0000X00264000000"}},{"type":"Feature","geometry":{"type":"Polygon","coordinates":[[[-79.9275932,40.3985055],[-79.9274771,40.3984611],[-79.9273313,40.3986838],[-79.9274474,40.3987282],[-79.9275932,40.3985055]]]},"properties":{"parcel_id":"0000X00265000000"}},{"type":"Feature","geometry":{"type":"Polygon","coordinates":[[[-79.9274623,40.3981769],[-79.927341,40.3981305],[-79.9271952,40.3983532],[-79.9273165,40.3983996],[-79.9274623,40.3981769]]]},"properties":{"parcel_id":"0000X00266000000"}},{"type":"Feature","geometry":{"type":"Polygon","coordinates":[[[-79.927341,40.3981305],[-79.9272395,40.3980916],[-79.9270937,40.3983144],[-79.9271952,40.3983532],[-79.927341,40.3981305]]]},"properties":{"parcel_id":"0000X00267000000"}},{"type":"Feature","geometry":{"type":"Polygon","coordinates":[[[-79.9272395,40.3980916],[-79.9271309,40.3980501],[-79.9269851,40.3982728],[-79.9270937,40.3983144],[-79.9272395,40.3980916]]]},"properties":{"parcel_id":"0000X00268000000"}},{"type":"Feature","geometry":{"type":"Polygon","coordinates":[[[-79.9271309,40.3980501],[-79.9270289,40.3980111],[-79.9268831,40.3982338],[-79.9269851,40.3982728],[-79.9271309,40.3980501]]]},"properties":{"parcel_id":"0000X00269000000"}},{"type":"Feature","geometry":{"type":"Polygon","coordinates":[[[-80.0493876,40.3725413],[-80.0492703,40.3725628],[-80.0493643,40.3728626],[-80.0494816,40.372841],[-80.0493876,40.3725413]]]},"properties":{"parcel_id":"0000X00270000000"}},{"type":"Feature","geometry":{"type":"Polygon","coordinates":[[[-80.0492703,40.3725628],[-80.0491507,40.3725847],[-80.0492448,40.3728845],[-80.0493643,40.3728626],[-80.0492703,40.3725628]]]},"properties":{"parcel_id":"0000X00271000000"}},{"type":"Feature","geometry":{"type":"Polygon","coordinates":[[[-80.0491507,40.3725847],[-80.0490258,40.3726076],[-80.0491198,40.3729074],[-80.0492448,40.3728845],[-80.0491507,40.3725847]]]},"properties":{"parcel_id":"0000X00272000000"}},{"type":"Feature","geometry":{"type":"Polygon","coordinates":[[[-80.0490258,40.3726076],[-80.048908,40.3726293],[-80.049002,40.3729291],[-80.0491198,40.3729074],[-80.0490258,40.3726076]]]},"properties":{"parcel_id":"0000X00273000000"}},{"type":"Feature","geometry":{"type":"Polygon","coordinates":[[[-80.048908,40.3726293],[-80.0487874,40.3726514],[-80.0488814,40.3729512],[-80.049002,40.3729291],[-80.048908,40.3726293]]]},"properties":{"parcel_id":"0000X00274000000"}},{"type":"Feature","geometry":{"type":"Polygon","coordinates":[[[-79.9332808,40.4494315],[-79.9331589,40.4494696],[-79.9330017,40.4492128],[-79.9331259,40.4491721],[-79.9332808,40.4494315]]]},"properties":{"parcel_id":"0052H00093000000"}},{"type":"Feature","geometry":{"type":"Polygon","coordinates":[[[-79.9631707,40.4738206],[-79.96342,40.4736186],[-79.9635032,40.4736781],[-79.9632545,40.473881],[-79.9631707,40.4738206]]]},"properties":{"parcel_id":"0080N00159000000"}},{"type":"Feature","geometry":{"type":"Polygon","coordinates":[[[-79.9151079,40.4166472],[-79.9153482,40.4164496],[-79.9154163,40.4164993],[-79.9151811,40.4166991],[-79.9151079,40.4166472]]]},"properties":{"parcel_id":"0129J00037000000"}},{"type":"Feature","geometry":{"type":"Polygon","coordinates":[[[-79.889496,40.4413952],[-79.8896709,40.4410877],[-79.8897781,40.4411255],[-79.8896068,40.4414315],[-79.889496,40.4413952]]]},"properties":{"parcel_id":"0176C00275000000"}},{"type":"Feature","geometry":{"type":"Polygon","coordinates":[[[-79.8970952,40.4690071],[-79.8972005,40.4689823],[-79.8972043,40.4689922],[-79.8973014,40.4692432],[-79.8971943,40.4692686],[-79.8970991,40.4690171],[-79.8970952,40.4690071]]]},"properties":{"parcel_id":"0173E00082000000"}},{"type":"Feature","geometry":{"type":"Polygon","coordinates":[[[-79.9987235,40.4556226],[-79.9987853,40.4556116],[-79.9988244,40.4556049],[-79.9989031,40.4558253],[-79.998863,40.4558326],[-79.998801,40.4558434],[-79.9987823,40.4557902],[-79.9987235,40.4556226]]]},"properties":{"parcel_id":"0024J00060000000"}},{"type":"Feature","geometry":{"type":"Polygon","coordinates":[[[-79.9463744,40.4221722],[-79.9462457,40.4218736],[-79.9466523,40.4220582],[-79.9463744,40.4221722]]]},"properties":{"parcel_id":"0055A00137000000"}},{"type":"Feature","geometry":{"type":"Polygon","coordinates":[[[-80.0151239,40.4311385],[-80.0151374,40.4310676],[-80.0155114,40.43111],[-80.0154954,40.4311821],[-80.0151239,40.4311385]]]},"properties":{"parcel_id":"0004A00303000000"}}]}
