{"type":"FeatureCollection","features":[{"type":"Feature","geometry":{"type":"Polygon","coordinates":[[[-79.957742,40.429958],[-79.956628,40.428876],[-79.956275,40.429121],[-79.955783,40.428659],[-79.955079,40.428174],[-79.954415,40.427845],[-79.953922,40.427667],[-79.953536,40.427567],[-79.953061,40.427471],[-79.952564,40.427416],[-79.951828,40.427402],[-79.951081,40.427461],[-79.950434,40.427606],[-79.950801,40.427211],[-79.951707,40.426317],[-79.951959,40.426024],[-79.952112,40.425771],[-79.952239,40.425437],[-79.952285,40.42518],[-79.952291,40.424906],[-79.952039,40.424925],[-79.951127,40.425364],[-79.950797,40.425496],[-79.949838,40.425673],[-79.949788,40.425615],[-79.94993,40.425546],[-79.950876,40.425187],[-79.951017,40.425051],[-79.951046,40.425],[-79.95104,40.42492],[-79.950878,40.425041],[-79.950735,40.425084],[-79.95065,40.425084],[-79.950081,40.424891],[-79.949509,40.425103],[-79.947789,40.422318],[-79.94763,40.422066],[-79.947562,40.422001],[-79.947025,40.421762],[-79.941455,40.419059],[-79.941042,40.418879],[-79.940668,40.418888],[-79.938294,40.419091],[-79.937608,40.41917],[-79.936026,40.419402],[-79.933833,40.419796],[-79.933693,40.41974],[-79.93311,40.419806],[-79.932311,40.419843],[-79.932214,40.418964],[-79.930701,40.419045],[-79.930697,40.418931],[-79.92916,40.418951],[-79.92914,40.419325],[-79.929218,40.419761],[-79.928171,40.419691],[-79.928135,40.41911],[-79.926777,40.418919],[-79.926209,40.418245],[-79.926051,40.41794],[-79.925947,40.417597],[-79.925872,40.416921],[-79.925777,40.416598],[-79.925657,40.416363],[-79.925472,40.416117],[-79.924912,40.415457],[-79.924935,40.415304],[-79.924993,40.415169],[-79.924974,40.415056],[-79.923874,40.414011],[-79.92362,40.413804],[-79.923426,40.413739],[-79.923532,40.413549],[-79.92285,40.412938],[-79.922894,40.412791],[-79.922597,40.412745],[-79.922813,40.412083],[-79.922825,40.41195],[-79.922777,40.411812],[-79.922922,40.411497],[-79.923061,40.411371],[-79.92336,40.411214],[-79.924103,40.410966],[-79.924519,40.410725],[-79.924851,40.410568],[-79.925175,40.410449],[-79.925361,40.410417],[-79.925876,40.410495],[-79.92608,40.410502],[-79.926231,40.410478],[-79.926341,40.410433],[-79.926473,40.410323],[-79.926958,40.41024],[-79.927231,40.410342],[-79.927363,40.410641],[-79.929604,40.409664],[-79.929711,40.409779],[-79.930559,40.411375],[-79.93407,40.410637],[-79.934255,40.410628],[-79.937265,40.40985],[-79.936866,40.408557],[-79.93707,40.408507],[-79.937274,40.407942],[-79.937181,40.407878],[-79.937388,40.407604],[-79.936357,40.407141],[-79.935465,40.406502],[-79.936094,40.405786],[-79.936511,40.405154],[-79.935841,40.404897],[-79.935517,40.404823],[-79.935263,40.404834],[-79.935353,40.403436],[-79.935394,40.403376],[-79.93594,40.403007],[-79.936514,40.402176],[-79.937134,40.401011],[-79.937317,40.400752],[-79.937684,40.400411],[-79.937867,40.400197],[-79.938025,40.40024],[-79.937922,40.400139],[-79.937691,40.400068],[-79.93694,40.399997],[-79.936254,40.399961],[-79.936111,40.399928],[-79.935935,40.399832],[-79.935811,40.399664],[-79.935759,40.399489],[-79.93563,40.398596],[-79.936169,40.398536],[-79.936308,40.398554],[-79.936411,40.398652],[-79.936447,40.398642],[-79.936591,40.398435],[-79.936883,40.398335],[-79.937181,40.398311],[-79.937725,40.398224],[-79.939103,40.398213],[-79.940564,40.398316],[-79.941529,40.398416],[-79.942123,40.398538],[-79.943321,40.398914],[-79.944235,40.399352],[-79.944682,40.399522],[-79.945263,40.39995],[-79.945547,40.400193],[-79.945989,40.400399],[-79.946844,40.401028],[-79.947077,40.401256],[-79.94757,40.401862],[-79.948051,40.402354],[-79.948199,40.402474],[-79.948321,40.402695],[-79.948418,40.402812],[-79.948528,40.403055],[-79.948655,40.403209],[-79.948887,40.403402],[-79.949236,40.403909],[-79.949547,40.404256],[-79.94969,40.404637],[-79.949914,40.404966],[-79.950177,40.405537],[-79.950461,40.406554],[-79.950492,40.406878],[-79.950481,40.407148],[-79.950681,40.407252],[-79.950725,40.407319],[-79.950739,40.407723],[-79.95078,40.407919],[-79.950879,40.408167],[-79.950973,40.408695],[-79.951153,40.40936],[-79.951258,40.409553],[-79.951161,40.409697],[-79.951033,40.40975],[-79.951052,40.409791],[-79.951167,40.409786],[-79.951226,40.409807],[-79.951329,40.409941],[-79.951329,40.410067],[-79.95148,40.410772],[-79.951526,40.411248],[-79.951507,40.411645],[-79.951525,40.411845],[-79.951689,40.412765],[-79.95184,40.413125],[-79.951735,40.413323],[-79.951772,40.414955],[-79.951728,40.416615],[-79.951739,40.41698],[-79.951802,40.417412],[-79.951843,40.418389],[-79.951941,40.4192],[-79.952098,40.420123],[-79.952418,40.421075],[-79.95259,40.421508],[-79.952802,40.421894],[-79.952932,40.422001],[-79.953013,40.42212],[-79.953431,40.422816],[-79.953489,40.42295],[-79.95351,40.423182],[-79.953762,40.423449],[-79.953921,40.423745],[-79.954121,40.424009],[-79.954207,40.4241],[-79.954274,40.424135],[-79.954511,40.424404],[-79.954601,40.424622],[-79.954975,40.424934],[-79.955228,40.42526],[-79.955442,40.425469],[-79.955632,40.425759],[-79.955928,40.426078],[-79.95607,40.426184],[-79.956265,40.426401],[-79.956559,40.426654],[-79.956819,40.426783],[-79.957087,40.426996],[-79.957343,40.427248],[-79.957725,40.42755],[-79.958444,40.428274],[-79.958607,40.42834],[-79.958795,40.428465],[-79.959446,40.428982],[-79.957742,40.429958]]]},"properties":{"kind":"neighborhood","name":"Hazelwood"}},{"type":"Feature","geometry":{"type":"Polygon","coordinates":[[[-79.946731,40.420048],[-79.947581,40.421071],[-79.947395,40.421233],[-79.947459,40.421534],[-79.947485,40.421536],[-79.947478,40.421869],[-79.94726,40.421839],[-79.945909,40.421179],[-79.94558,40.420621],[-79.945592,40.420571],[-79.945654,40.42055],[-79.946101,40.420643],[-79.945767,40.420059],[-79.946099,40.419948],[-79.946237,40.420192],[-79.946731,40.420048]]]},"properties":{"kind":"park","name":"Bud Hammer Park"}},{"type":"Feature","geometry":{"type":"Polygon","coordinates":[[[-79.942755,40.40375],[-79.942433,40.403803],[-79.942304,40.403399],[-79.942162,40.403149],[-79.942467,40.403096],[-79.942557,40.40336],[-79.942698,40.403538],[-79.942755,40.40375]]]},"properties":{"kind":"park","name":"Hazelwood Healthy Active Living Center"}},{"type":"Feature","geometry":{"type":"Polygon","coordinates":[[[-79.935649,40.404796],[-79.935344,40.404776],[-79.936125,40.403737],[-79.936331,40.403837],[-79.937148,40.403562],[-79.937443,40.403572],[-79.937434,40.40382],[-79.937585,40.403963],[-79.938211,40.404739],[-79.938202,40.404769],[-79.937029,40.405313],[-79.935896,40.404855],[-79.935649,40.404796]]]},"properties":{"kind":"park","name":"Burgwin Park"}},{"type":"Feature","geometry":{"type":"Polygon","coordinates":[[[-79.945256,40.403452],[-79.94586,40.403379],[-79.94612,40.40449],[-79.94546,40.404571],[-79.945256,40.403452]]]},"properties":{"kind":"park","name":"Blair Street Park"}},{"type":"Feature","geometry":{"type":"Polygon","coordinates":[[[-79.94499,40.412529],[-79.945029,40.412549],[-79.945074,40.41278],[-79.945202,40.413141],[-79.945177,40.413163],[-79.944685,40.413276],[-79.944398,40.412685],[-79.94499,40.412529]]]},"properties":{"kind":"park","name":"Lewis Park"}},{"type":"Feature","geometry":{"type":"Polygon","coordinates":[[[-79.938301,40.41479],[-79.938652,40.414175],[-79.939258,40.414706],[-79.939151,40.415463],[-79.939102,40.415515],[-79.938705,40.415766],[-79.938539,40.415939],[-79.937726,40.415649],[-79.938098,40.415204],[-79.938301,40.41479]]]},"properties":{"kind":"park","name":"Gladstone Park"}},{"type":"Feature","geometry":{"type":"MultiPolygon","coordinates":[[[[-79.932866,40.413387],[-79.932673,40.413132],[-79.932144,40.413384],[-79.931972,40.413141],[-79.932787,40.412797],[-79.932965,40.413001],[-79.933032,40.412973],[-79.932855,40.41277],[-79.932999,40.412707],[-79.934366,40.412295],[-79.934578,40.412107],[-79.934837,40.411794],[-79.934368,40.410713],[-79.93423,40.410744],[-79.934243,40.410776],[-79.933768,40.410875],[-79.933938,40.411076],[-79.933738,40.411277],[-79.933339,40.411018],[-79.933078,40.410999],[-79.933651,40.411366],[-79.93202,40.411711],[-79.931935,40.411471],[-79.932069,40.411443],[-79.93198,40.41122],[-79.930684,40.411484],[-79.930469,40.411166],[-79.929791,40.410293],[-79.931799,40.409203],[-79.935531,40.4053],[-79.935853,40.405431],[-79.93539,40.406108],[-79.935623,40.406347],[-79.935985,40.405797],[-79.936119,40.405851],[-79.936077,40.405912],[-79.936422,40.406053],[-79.936338,40.406174],[-79.935991,40.406037],[-79.93572,40.406428],[-79.93598,40.406693],[-79.936251,40.4063],[-79.936644,40.40645],[-79.93642,40.406776],[-79.936908,40.406959],[-79.936704,40.407243],[-79.9364,40.40712],[-79.93632,40.407259],[-79.937403,40.40769],[-79.93721,40.407982],[-79.937332,40.408034],[-79.936848,40.408695],[-79.937039,40.409259],[-79.93773,40.409206],[-79.937752,40.409412],[-79.938252,40.409383],[-79.938261,40.409457],[-79.93776,40.409488],[-79.937768,40.409558],[-79.93716,40.40959],[-79.93731,40.410005],[-79.936885,40.410097],[-79.936997,40.410396],[-79.937334,40.410321],[-79.93725,40.410085],[-79.937666,40.409994],[-79.937646,40.409933],[-79.937804,40.40989],[-79.938168,40.409824],[-79.938332,40.409848],[-79.938536,40.410384],[-79.938874,40.410311],[-79.939023,40.410701],[-79.938592,40.410953],[-79.938549,40.410838],[-79.938179,40.41093],[-79.938159,40.410908],[-79.937734,40.411],[-79.93783,40.411257],[-79.937377,40.411077],[-79.937052,40.411149],[-79.937131,40.411411],[-79.936634,40.411521],[-79.936476,40.41128],[-79.935843,40.410874],[-79.935747,40.410959],[-79.935605,40.411361],[-79.935157,40.411469],[-79.935252,40.411692],[-79.935416,40.411718],[-79.935525,40.411614],[-79.936013,40.412022],[-79.935618,40.412306],[-79.934911,40.412632],[-79.933317,40.413163],[-79.932866,40.413387]]],[[[-79.948681,40.422444],[-79.948615,40.422361],[-79.948409,40.422427],[-79.948168,40.422028],[-79.948358,40.422039],[-79.948252,40.42192],[-79.947478,40.421869],[-79.947485,40.421536],[-79.947459,40.421534],[-79.947395,40.421233],[-79.947581,40.421071],[-79.946093,40.419281],[-79.94576,40.419362],[-79.945568,40.419022],[-79.945299,40.419091],[-79.945145,40.418725],[-79.945552,40.418625],[-79.945506,40.418572],[-79.944573,40.418807],[-79.944585,40.418835],[-79.944512,40.418853],[-79.944499,40.418821],[-79.944163,40.418906],[-79.944129,40.418828],[-79.944055,40.418844],[-79.943885,40.41845],[-79.943549,40.418533],[-79.943663,40.418796],[-79.943528,40.418849],[-79.943361,40.41845],[-79.943828,40.41832],[-79.943774,40.418194],[-79.943438,40.418275],[-79.943305,40.418328],[-79.943119,40.417891],[-79.943072,40.417277],[-79.94263,40.417415],[-79.942436,40.417033],[-79.942907,40.416879],[-79.94307,40.417192],[-79.943222,40.417227],[-79.943979,40.417],[-79.944768,40.417449],[-79.944958,40.417388],[-79.945043,40.417463],[-79.944686,40.417582],[-79.944732,40.417637],[-79.9451,40.417515],[-79.945153,40.417562],[-79.944774,40.417688],[-79.944817,40.41774],[-79.945208,40.417612],[-79.945312,40.417705],[-79.944901,40.417842],[-79.944952,40.417903],[-79.945372,40.417757],[-79.945448,40.417826],[-79.945571,40.417755],[-79.945427,40.417659],[-79.945387,40.417318],[-79.945143,40.417392],[-79.944484,40.416783],[-79.944457,40.416731],[-79.944861,40.416599],[-79.944834,40.416547],[-79.944428,40.416677],[-79.943721,40.415337],[-79.943921,40.415276],[-79.944006,40.415431],[-79.944299,40.415343],[-79.944687,40.416097],[-79.944815,40.416059],[-79.944906,40.41624],[-79.945272,40.416332],[-79.945346,40.416458],[-79.945425,40.416483],[-79.945508,40.416457],[-79.945795,40.416757],[-79.945468,40.416857],[-79.945485,40.417008],[-79.946029,40.416835],[-79.946306,40.417371],[-79.946661,40.417254],[-79.947414,40.418697],[-79.947321,40.418725],[-79.947458,40.418984],[-79.947592,40.418945],[-79.947859,40.419521],[-79.948312,40.419308],[-79.948456,40.419572],[-79.948292,40.419644],[-79.948443,40.419905],[-79.948599,40.419834],[-79.949197,40.42082],[-79.948871,40.42094],[-79.949479,40.421803],[-79.949547,40.421778],[-79.949714,40.42201],[-79.948681,40.422444]]],[[[-79.935915,40.415483],[-79.935847,40.4155],[-79.935505,40.414685],[-79.933368,40.415207],[-79.933101,40.414811],[-79.935672,40.414184],[-79.935345,40.413433],[-79.934731,40.413582],[-79.934575,40.413227],[-79.935271,40.413185],[-79.936788,40.412549],[-79.936868,40.412649],[-79.938315,40.413935],[-79.935847,40.414602],[-79.936187,40.415416],[-79.935983,40.415466],[-79.936093,40.415719],[-79.93603,40.415735],[-79.935915,40.415483]]],[[[-79.944794,40.417318],[-79.944005,40.416859],[-79.943199,40.417111],[-79.942752,40.416265],[-79.943183,40.416128],[-79.943149,40.416064],[-79.942716,40.416198],[-79.942548,40.415879],[-79.942985,40.41575],[-79.942949,40.415682],[-79.942514,40.415815],[-79.94181,40.414471],[-79.942383,40.414313],[-79.942698,40.414905],[-79.943256,40.414766],[-79.943593,40.41541],[-79.943054,40.41558],[-79.94366,40.416722],[-79.944195,40.416551],[-79.944314,40.416806],[-79.944858,40.417298],[-79.944794,40.417318]]],[[[-79.931199,40.411996],[-79.933769,40.411465],[-79.934032,40.411694],[-79.933448,40.412449],[-79.932805,40.412647],[-79.931908,40.413036],[-79.931199,40.411996]]],[[[-79.950339,40.42445],[-79.950208,40.424657],[-79.950092,40.424448],[-79.950276,40.424374],[-79.949426,40.423347],[-79.950561,40.422857],[-79.950664,40.423009],[-79.950199,40.423211],[-79.950254,40.423276],[-79.95071,40.423075],[-79.950983,40.423476],[-79.950598,40.42366],[-79.951467,40.424593],[-79.95121,40.424877],[-79.951402,40.425114],[-79.95086,40.425385],[-79.950125,40.425532],[-79.950789,40.42528],[-79.950998,40.42512],[-79.951165,40.424879],[-79.951015,40.424852],[-79.950945,40.425006],[-79.950854,40.425091],[-79.950758,40.424973],[-79.950483,40.424988],[-79.950408,40.424952],[-79.950558,40.424724],[-79.950339,40.42445]]],[[[-79.938822,40.409743],[-79.939159,40.409673],[-79.939217,40.409605],[-79.93955,40.409531],[-79.939616,40.409703],[-79.939761,40.409666],[-79.939857,40.409921],[-79.940218,40.409845],[-79.940383,40.41029],[-79.940025,40.410367],[-79.940149,40.410693],[-79.937917,40.411707],[-79.93716,40.411585],[-79.937153,40.411534],[-79.938296,40.411277],[-79.939187,40.410753],[-79.939163,40.410625],[-79.938822,40.409743]]],[[[-79.939946,40.415694],[-79.939647,40.415],[-79.939361,40.415067],[-79.939519,40.41393],[-79.940223,40.413751],[-79.940275,40.414033],[-79.940246,40.414266],[-79.940192,40.414262],[-79.940106,40.415033],[-79.940321,40.415598],[-79.939946,40.415694]]],[[[-79.942077,40.417855],[-79.942165,40.417413],[-79.941802,40.417374],[-79.94172,40.417818],[-79.941626,40.417808],[-79.941709,40.417364],[-79.941621,40.417355],[-79.941652,40.417168],[-79.942249,40.416981],[-79.942751,40.417926],[-79.942343,40.417883],[-79.942424,40.417441],[-79.942252,40.417422],[-79.942161,40.417864],[-79.942077,40.417855]]],[[[-79.941176,40.414634],[-79.941667,40.414507],[-79.941889,40.414928],[-79.941408,40.415074],[-79.941176,40.414634]]],[[[-79.933684,40.412375],[-79.934143,40.411807],[-79.934502,40.411977],[-79.934344,40.412177],[-79.933684,40.412375]]],[[[-79.934614,40.414032],[-79.934838,40.413968],[-79.934945,40.414234],[-79.934319,40.414377],[-79.934209,40.414105],[-79.934614,40.414032]]],[[[-79.949799,40.425528],[-79.949653,40.425286],[-79.949567,40.425317],[-79.949472,40.425157],[-79.950098,40.424929],[-79.950325,40.42504],[-79.949733,40.425257],[-79.94988,40.425499],[-79.949799,40.425528]]],[[[-79.939595,40.409239],[-79.940032,40.409215],[-79.940054,40.409405],[-79.939625,40.409511],[-79.939595,40.409239]]],[[[-79.93372,40.413186],[-79.934049,40.413078],[-79.934123,40.413255],[-79.93384,40.413324],[-79.933508,40.413459],[-79.93372,40.413186]]],[[[-79.949472,40.425351],[-79.949623,40.425558],[-79.949017,40.425513],[-79.949472,40.425351]]],[[[-79.934227,40.411784],[-79.934629,40.4117],[-79.934662,40.411777],[-79.934544,40.411925],[-79.934227,40.411784]]]]},"properties":{"kind":"park","name":"Hazelwood Park"}},{"type":"Feature","geometry":{"type":"Point","coordinates":[-79.92728,40.419752]},"properties":{"kind":"transit_stop","name":"BEECHWOOD BLVD AT HAZELWOOD AVE"}},{"type":"Feature","geometry":{"type":"Point","coordinates":[-79.938281,40.419069]},"properties":{"kind":"transit_stop","name":"BIGELOW ST AT MCCASLIN ST"}},{"type":"Feature","geometry":{"type":"Point","coordinates":[-79.935958,40.419436]},"properties":{"kind":"transit_stop","name":"BIGELOW ST AT TESLA ST"}},{"type":"Feature","geometry":{"type":"Point","coordinates":[-79.93611,40.419359]},"properties":{"kind":"transit_stop","name":"BIGELOW ST OPP TESLA ST"}},{"type":"Feature","geometry":{"type":"Point","coordinates":[-79.939703,40.418997]},"properties":{"kind":"transit_stop","name":"BIGELOW ST AT WINTERBURN AVE"}},{"type":"Feature","geometry":{"type":"Point","coordinates":[-79.92516,40.415666]},"properties":{"kind":"transit_stop","name":"BROWNS HILL RD AT IMOGENE RD"}},{"type":"Feature","geometry":{"type":"Point","coordinates":[-79.923007,40.414024]},"properties":{"kind":"transit_stop","name":"BROWNS HILL RD AT PARKVIEW BLVD FS"}},{"type":"Feature","geometry":{"type":"Point","coordinates":[-79.924617,40.415316]},"properties":{"kind":"transit_stop","name":"BROWNS HILL RD OPP IMOGENE RD"}},{"type":"Feature","geometry":{"type":"Point","coordinates":[-79.922983,40.413866]},"properties":{"kind":"transit_stop","name":"BROWNS HILL RD OPP PARKVIEW BLVD"}},{"type":"Feature","geometry":{"type":"Point","coordinates":[-79.952401,40.424821]},"properties":{"kind":"transit_stop","name":"GREENFIELD AVE AT IRVINE ST"}},{"type":"Feature","geometry":{"type":"Point","coordinates":[-79.929271,40.419868]},"properties":{"kind":"transit_stop","name":"GREENFIELD AVE AT HAZELWOOD AVE"}},{"type":"Feature","geometry":{"type":"Point","coordinates":[-79.949668,40.425641]},"properties":{"kind":"transit_stop","name":"GREENFIELD AVE AT SYLVAN AVE"}},{"type":"Feature","geometry":{"type":"Point","coordinates":[-79.952568,40.424988]},"properties":{"kind":"transit_stop","name":"GREENFIELD AVE AT SECOND AVE"}},{"type":"Feature","geometry":{"type":"Point","coordinates":[-79.949754,40.425718]},"properties":{"kind":"transit_stop","name":"GREENFIELD AVE AT FRAZIER ST"}},{"type":"Feature","geometry":{"type":"Point","coordinates":[-79.951833,40.424903]},"properties":{"kind":"transit_stop","name":"GREENFIELD AVE AT IRVINE ST FS"}},{"type":"Feature","geometry":{"type":"Point","coordinates":[-79.932901,40.419856]},"properties":{"kind":"transit_stop","name":"HAZELWOOD AVE AT FRANK ST"}},{"type":"Feature","geometry":{"type":"Point","coordinates":[-79.931424,40.419846]},"properties":{"kind":"transit_stop","name":"HAZELWOOD AVE AT NOTLEY ST"}},{"type":"Feature","geometry":{"type":"Point","coordinates":[-79.931716,40.419915]},"properties":{"kind":"transit_stop","name":"HAZELWOOD AVE AT #737"}},{"type":"Feature","geometry":{"type":"Point","coordinates":[-79.929354,40.419731]},"properties":{"kind":"transit_stop","name":"HAZELWOOD AVE OPP GREENFIELD AVE"}},{"type":"Feature","geometry":{"type":"Point","coordinates":[-79.932618,40.419791]},"properties":{"kind":"transit_stop","name":"HAZELWOOD AVE OPP #711"}},{"type":"Feature","geometry":{"type":"Point","coordinates":[-79.924993,40.415265]},"properties":{"kind":"transit_stop","name":"IMOGENE RD AT BROWNS HILL RD FS"}},{"type":"Feature","geometry":{"type":"Point","coordinates":[-79.922799,40.411704]},"properties":{"kind":"transit_stop","name":"IMOGENE RD AT DESDEMONA AVE"}},{"type":"Feature","geometry":{"type":"Point","coordinates":[-79.922847,40.411896]},"properties":{"kind":"transit_stop","name":"IMOGENE RD OPP DESDEMONA AVE"}},{"type":"Feature","geometry":{"type":"Point","coordinates":[-79.92493,40.415093]},"properties":{"kind":"transit_stop","name":"IMOGENE RD AT BROWNS HILL RD"}},{"type":"Feature","geometry":{"type":"Point","coordinates":[-79.942843,40.406185]},"properties":{"kind":"transit_stop","name":"JOHNSTON AVE AT SECOND AVE"}},{"type":"Feature","geometry":{"type":"Point","coordinates":[-79.942619,40.406135]},"properties":{"kind":"transit_stop","name":"JOHNSTON AVE AT SECOND AVE FS"}},{"type":"Feature","geometry":{"type":"Point","coordinates":[-79.941279,40.406575]},"properties":{"kind":"transit_stop","name":"JOHNSTON AVE AT GERTRUDE ST"}},{"type":"Feature","geometry":{"type":"Point","coordinates":[-79.939846,40.406469]},"properties":{"kind":"transit_stop","name":"JOHNSTON AVE AT GLENWOOD AVE"}},{"type":"Feature","geometry":{"type":"Point","coordinates":[-79.939644,40.406474]},"properties":{"kind":"transit_stop","name":"JOHNSTON AVE AT GLENWOOD AVE"}},{"type":"Feature","geometry":{"type":"Point","coordinates":[-79.938236,40.405819]},"properties":{"kind":"transit_stop","name":"JOHNSTON AVE AT WINSTON ST"}},{"type":"Feature","geometry":{"type":"Point","coordinates":[-79.937283,40.405517]},"properties":{"kind":"transit_stop","name":"JOHNSTON AVE AT MANSION ST"}},{"type":"Feature","geometry":{"type":"Point","coordinates":[-79.937219,40.405408]},"properties":{"kind":"transit_stop","name":"JOHNSTON AVE AT MANSION ST"}},{"type":"Feature","geometry":{"type":"Point","coordinates":[-79.935356,40.404871]},"properties":{"kind":"transit_stop","name":"JOHNSTON AVE AT #635"}},{"type":"Feature","geometry":{"type":"Point","coordinates":[-79.935035,40.404825]},"properties":{"kind":"transit_stop","name":"JOHNSTON AVE OPP #643"}},{"type":"Feature","geometry":{"type":"Point","coordinates":[-79.928399,40.420304]},"properties":{"kind":"transit_stop","name":"MURRAY AVE AT HAZELWOOD AVE FS"}},{"type":"Feature","geometry":{"type":"Point","coordinates":[-79.92835,40.419851]},"properties":{"kind":"transit_stop","name":"MURRAY AVE AT HAZELWOOD AVE"}},{"type":"Feature","geometry":{"type":"Point","coordinates":[-79.939888,40.419024]},"properties":{"kind":"transit_stop","name":"WINTERBURN AVE AT BIGELOW ST"}},{"type":"Feature","geometry":{"type":"Point","coordinates":[-79.941243,40.406496]},"properties":{"kind":"transit_stop","name":"JOHNSTON AVE OPP GERTRUDE ST"}},{"type":"Feature","geometry":{"type":"Point","coordinates":[-79.937813,40.419159]},"properties":{"kind":"transit_stop","name":"BIGELOW ST AT MCCASLIN ST"}},{"type":"Feature","geometry":{"type":"Point","coordinates":[-79.941803,40.411892]},"properties":{"kind":"transit_stop","name":"HAZELWOOD AVE OPP SYLVAN AVE"}},{"type":"Feature","geometry":{"type":"Point","coordinates":[-79.940231,40.412399]},"properties":{"kind":"transit_stop","name":"HAZELWOOD AVE OPP GLADSTONE ST"}},{"type":"Feature","geometry":{"type":"Point","coordinates":[-79.939324,40.413361]},"properties":{"kind":"transit_stop","name":"HAZELWOOD AVE AT NANSEN ST"}},{"type":"Feature","geometry":{"type":"Point","coordinates":[-79.939171,40.414509]},"properties":{"kind":"transit_stop","name":"HAZELWOOD AVE AT GIDDINGS ST"}},{"type":"Feature","geometry":{"type":"Point","coordinates":[-79.938477,40.415852]},"properties":{"kind":"transit_stop","name":"HAZELWOOD AVE AT SABINA ST"}},{"type":"Feature","geometry":{"type":"Point","coordinates":[-79.936661,40.417938]},"properties":{"kind":"transit_stop","name":"HAZELWOOD AVE OPP EMAHLEA ST"}},{"type":"Feature","geometry":{"type":"Point","coordinates":[-79.934099,40.419456]},"properties":{"kind":"transit_stop","name":"HAZELWOOD AVE AT CALVARY ST"}},{"type":"Feature","geometry":{"type":"Point","coordinates":[-79.936668,40.418148]},"properties":{"kind":"transit_stop","name":"HAZELWOOD AVE AT EMAHLEA ST"}},{"type":"Feature","geometry":{"type":"Point","coordinates":[-79.939018,40.415669]},"properties":{"kind":"transit_stop","name":"HAZELWOOD AVE AT WINTERBURN AVE"}},{"type":"Feature","geometry":{"type":"Point","coordinates":[-79.939415,40.413525]},"properties":{"kind":"transit_stop","name":"HAZELWOOD AVE OPP NANSEN ST"}},{"type":"Feature","geometry":{"type":"Point","coordinates":[-79.9403,40.412525]},"properties":{"kind":"transit_stop","name":"HAZELWOOD AVE AT GLADSTONE ST"}},{"type":"Feature","geometry":{"type":"Point","coordinates":[-79.941742,40.411953]},"properties":{"kind":"transit_stop","name":"HAZELWOOD AVE AT SYLVAN AVE"}},{"type":"Feature","geometry":{"type":"Point","coordinates":[-79.944466,40.411411]},"properties":{"kind":"transit_stop","name":"HAZELWOOD AVE AT SECOND AVE"}},{"type":"Feature","geometry":{"type":"Point","coordinates":[-79.928993,40.419731]},"properties":{"kind":"transit_stop","name":"HAZELWOOD AVE AT GREENFIELD AVE"}},{"type":"Feature","geometry":{"type":"Point","coordinates":[-79.950652,40.418087]},"properties":{"kind":"transit_stop","name":"BLAIR ST OPP BEEHIVE ST"}},{"type":"Feature","geometry":{"type":"Point","coordinates":[-79.950592,40.418081]},"properties":{"kind":"transit_stop","name":"BLAIR ST AT BEEHIVE ST"}},{"type":"Feature","geometry":{"type":"Point","coordinates":[-79.946773,40.4108]},"properties":{"kind":"transit_stop","name":"HAZELWOOD AVE AT LYTLE ST"}},{"type":"Feature","geometry":{"type":"Point","coordinates":[-79.94682,40.410911]},"properties":{"kind":"transit_stop","name":"HAZELWOOD AVE AT LYTLE ST"}},{"type":"Feature","geometry":{"type":"Point","coordinates":[-79.955861,40.427358]},"properties":{"kind":"transit_stop","name":"BLAIR ST AT SECOND AVE FS"}},{"type":"Feature","geometry":{"type":"Point","coordinates":[-79.955626,40.426708]},"properties":{"kind":"transit_stop","name":"BLAIR ST OPP STREET A"}},{"type":"Feature","geometry":{"type":"Point","coordinates":[-79.950008,40.413823]},"properties":{"kind":"transit_stop","name":"BLAIR ST AT ELIZA ST"}},{"type":"Feature","geometry":{"type":"Point","coordinates":[-79.950076,40.414071]},"properties":{"kind":"transit_stop","name":"BLAIR ST AT ELIZA ST"}},{"type":"Feature","geometry":{"type":"Point","coordinates":[-79.944329,40.411266]},"properties":{"kind":"transit_stop","name":"HAZELWOOD AVE AT OSPREY WAY"}},{"type":"Feature","geometry":{"type":"Point","coordinates":[-79.952294,40.421419]},"properties":{"kind":"transit_stop","name":"BLAIR ST OPP #4165"}},{"type":"Feature","geometry":{"type":"Point","coordinates":[-79.952087,40.421563]},"properties":{"kind":"transit_stop","name":"BLAIR ST AT #4165"}},{"type":"Feature","geometry":{"type":"Point","coordinates":[-79.937948,40.400252]},"properties":{"kind":"transit_stop","name":"SECOND AVE AT ALUVIAN ST"}},{"type":"Feature","geometry":{"type":"Point","coordinates":[-79.941978,40.402927]},"properties":{"kind":"transit_stop","name":"SECOND AVE AT AMERICAN ST"}},{"type":"Feature","geometry":{"type":"Point","coordinates":[-79.943174,40.406964]},"properties":{"kind":"transit_stop","name":"SECOND AVE AT ELIZABETH ST"}},{"type":"Feature","geometry":{"type":"Point","coordinates":[-79.943363,40.407198]},"properties":{"kind":"transit_stop","name":"SECOND AVE AT ELIZABETH ST"}},{"type":"Feature","geometry":{"type":"Point","coordinates":[-79.944012,40.409879]},"properties":{"kind":"transit_stop","name":"SECOND AVE AT FLOWERS AVE"}},{"type":"Feature","geometry":{"type":"Point","coordinates":[-79.943734,40.408923]},"properties":{"kind":"transit_stop","name":"SECOND AVE AT GLEN CALADH ST"}},{"type":"Feature","geometry":{"type":"Point","coordinates":[-79.939296,40.400994]},"properties":{"kind":"transit_stop","name":"SECOND AVE AT GLENWOOD AVE"}},{"type":"Feature","geometry":{"type":"Point","coordinates":[-79.942871,40.405881]},"properties":{"kind":"transit_stop","name":"SECOND AVE AT JOHNSTON AVE"}},{"type":"Feature","geometry":{"type":"Point","coordinates":[-79.942219,40.403622]},"properties":{"kind":"transit_stop","name":"SECOND AVE AT MANSION ST"}},{"type":"Feature","geometry":{"type":"Point","coordinates":[-79.939411,40.400976]},"properties":{"kind":"transit_stop","name":"SECOND AVE AT RENOVA ST"}},{"type":"Feature","geometry":{"type":"Point","coordinates":[-79.943805,40.408757]},"properties":{"kind":"transit_stop","name":"SECOND AVE AT TECUMSEH ST"}},{"type":"Feature","geometry":{"type":"Point","coordinates":[-79.943375,40.407659]},"properties":{"kind":"transit_stop","name":"SECOND AVE AT TIPTON ST"}},{"type":"Feature","geometry":{"type":"Point","coordinates":[-79.940663,40.401689]},"properties":{"kind":"transit_stop","name":"SECOND AVE AT VESPUCIUS ST"}},{"type":"Feature","geometry":{"type":"Point","coordinates":[-79.940508,40.401704]},"properties":{"kind":"transit_stop","name":"SECOND AVE OPP VESPUCIUS ST"}},{"type":"Feature","geometry":{"type":"Point","coordinates":[-79.94248,40.404466]},"properties":{"kind":"transit_stop","name":"SECOND AVE AT WINSTON ST"}},{"type":"Feature","geometry":{"type":"Point","coordinates":[-79.938132,40.400208]},"properties":{"kind":"transit_stop","name":"SECOND AVE OPP ALUVIAN ST"}},{"type":"Feature","geometry":{"type":"Point","coordinates":[-79.944203,40.410123]},"properties":{"kind":"transit_stop","name":"SECOND AVE OPP FLOWERS AVE"}},{"type":"Feature","geometry":{"type":"Point","coordinates":[-79.943062,40.406173]},"properties":{"kind":"transit_stop","name":"SECOND AVE OPP JOHNSTON AVE"}},{"type":"Feature","geometry":{"type":"Point","coordinates":[-79.942468,40.40402]},"properties":{"kind":"transit_stop","name":"SECOND AVE OPP MANSION ST"}},{"type":"Feature","geometry":{"type":"Point","coordinates":[-79.942636,40.404649]},"properties":{"kind":"transit_stop","name":"SECOND AVE OPP WINSTON ST"}},{"type":"Feature","geometry":{"type":"Point","coordinates":[-79.945196,40.413064]},"properties":{"kind":"transit_stop","name":"IRVINE ST AT BERWICK ST"}},{"type":"Feature","geometry":{"type":"Point","coordinates":[-79.94484,40.4114]},"properties":{"kind":"transit_stop","name":"SECOND AVE AT HAZELWOOD AVE"}},{"type":"Feature","geometry":{"type":"Point","coordinates":[-79.946641,40.415956]},"properties":{"kind":"transit_stop","name":"IRVINE ST AT MOBILE ST"}},{"type":"Feature","geometry":{"type":"Point","coordinates":[-79.945884,40.414518]},"properties":{"kind":"transit_stop","name":"IRVINE ST AT TULLYMET ST"}},{"type":"Feature","geometry":{"type":"Point","coordinates":[-79.945349,40.413123]},"properties":{"kind":"transit_stop","name":"IRVINE ST OPP BERWICK ST"}},{"type":"Feature","geometry":{"type":"Point","coordinates":[-79.946823,40.416081]},"properties":{"kind":"transit_stop","name":"IRVINE ST OPP MOBILE ST"}}]}
